{"type": "FeatureCollection", "name": "sumber_gas", "crs": {"type": "name", "properties": {"name": "urn:ogc:def:crs:OGC:1.3:CRS84"}}, "features": [{"type": "Feature", "properties": {"objectid": 1, "nama_pembangkit": "PLTMG Arun", "tipe": "MG", "status": "EXISTING"}, "geometry": {"type": "Point", "coordinates": [97.08987604852636, 5.216592823947421]}}, {"type": "Feature", "properties": {"objectid": 2, "nama_pembangkit": "PLTMG Arun Ekspansi", "tipe": "MG", "status": "EXISTING"}, "geometry": {"type": "Point", "coordinates": [97.08712188500006, 5.214492636666705]}}, {"type": "Feature", "properties": {"objectid": 3, "nama_pembangkit": "PLTGU Belawan", "tipe": "GU", "status": "EXISTING"}, "geometry": {"type": "Point", "coordinates": [98.66935895825006, 3.77313866137505]}}, {"type": "Feature", "properties": {"objectid": 4, "nama_pembangkit": "Nias", "tipe": "MG", "status": "EXISTING"}, "geometry": {"type": "Point", "coordinates": [97.67768752340007, 1.209301236600038]}}, {"type": "Feature", "properties": {"objectid": 5, "nama_pembangkit": "PLTGU Riau MRPR", "tipe": "GU", "status": "EXISTING"}, "geometry": {"type": "Point", "coordinates": [101.5206553, 0.537426]}}, {"type": "Feature", "properties": {"objectid": 6, "nama_pembangkit": "PLTMG Balai Pungut", "tipe": "MG", "status": "EXISTING"}, "geometry": {"type": "Point", "coordinates": [101.28114967642863, 1.0735366662857555]}}, {"type": "Feature", "properties": {"objectid": 7, "nama_pembangkit": "MPP Balai Pungut", "tipe": "G", "status": "EXISTING"}, "geometry": {"type": "Point", "coordinates": [101.28213717333341, 1.0718498873333908]}}, {"type": "Feature", "properties": {"objectid": 8, "nama_pembangkit": "PLTMG SW Lirik", "tipe": "MG", "status": "EXISTING"}, "geometry": {"type": "Point", "coordinates": [102.30187975900006, -0.330818107499965]}}, {"type": "Feature", "properties": {"objectid": 9, "nama_pembangkit": "PLTMG SW Siberida", "tipe": "MG", "status": "EXISTING"}, "geometry": {"type": "Point", "coordinates": [102.5186326, -0.7443132]}}, {"type": "Feature", "properties": {"objectid": 10, "nama_pembangkit": "PLTMG Sungai Gelam", "tipe": "MG", "status": "EXISTING"}, "geometry": {"type": "Point", "coordinates": [103.6787937510001, -1.674993036999979]}}, {"type": "Feature", "properties": {"objectid": 11, "nama_pembangkit": "PLTG(GU) Payoselincah BOT", "tipe": "G", "status": "EXISTING"}, "geometry": {"type": "Point", "coordinates": [103.6456650530001, -1.5955076519999525]}}, {"type": "Feature", "properties": {"objectid": 12, "nama_pembangkit": "PLTMG SW Purwodadi", "tipe": "MG", "status": "EXISTING"}, "geometry": {"type": "Point", "coordinates": [103.1855, -1.11181]}}, {"type": "Feature", "properties": {"objectid": 13, "nama_pembangkit": "PLTGU Indralaya", "tipe": "GU", "status": "EXISTING"}, "geometry": {"type": "Point", "coordinates": [104.65640974900003, -3.206621551333285]}}, {"type": "Feature", "properties": {"objectid": 14, "nama_pembangkit": "PLTGU Keramasan", "tipe": "GU", "status": "EXISTING"}, "geometry": {"type": "Point", "coordinates": [104.74582650150005, -3.0317632899999296]}}, {"type": "Feature", "properties": {"objectid": 15, "nama_pembangkit": "PLTG(GU) Borang BOT", "tipe": "G", "status": "EXISTING"}, "geometry": {"type": "Point", "coordinates": [104.87302640950006, -2.9231376919999548]}}, {"type": "Feature", "properties": {"objectid": 16, "nama_pembangkit": "PLTG MPP TARAHAN", "tipe": "G", "status": "EXISTING"}, "geometry": {"type": "Point", "coordinates": [105.34604063180004, -5.518577985799977]}}, {"type": "Feature", "properties": {"objectid": 17, "nama_pembangkit": "PLTMG SW SUTAMI", "tipe": "MG", "status": "EXISTING"}, "geometry": {"type": "Point", "coordinates": [105.378165, -5.390456]}}, {"type": "Feature", "properties": {"objectid": 18, "nama_pembangkit": "PLTGU Borang (IPP)", "tipe": "GU", "status": "EXISTING"}, "geometry": {"type": "Point", "coordinates": [104.870738643, -2.928110007999976]}}, {"type": "Feature", "properties": {"objectid": 19, "nama_pembangkit": "PLTGU Gunung Megang", "tipe": "GU", "status": "EXISTING"}, "geometry": {"type": "Point", "coordinates": [103.80023437533345, -3.5069649819999618]}}, {"type": "Feature", "properties": {"objectid": 20, "nama_pembangkit": "PLTGU Musi II", "tipe": "GU", "status": "EXISTING"}, "geometry": {"type": "Point", "coordinates": [104.7167610710001, -3.025298728999928]}}, {"type": "Feature", "properties": {"objectid": 21, "nama_pembangkit": "PLTMG Musirawas (Jayaloka )", "tipe": "MG", "status": "EXISTING"}, "geometry": {"type": "Point", "coordinates": [103.1507258490001, -3.362658258999943]}}, {"type": "Feature", "properties": {"objectid": 22, "nama_pembangkit": "PLTMG Palembang (PLPJ)", "tipe": "MG", "status": "EXISTING"}, "geometry": {"type": "Point", "coordinates": [104.8097567, -2.9468048]}}, {"type": "Feature", "properties": {"objectid": 23, "nama_pembangkit": "PLTMG Prabumulih", "tipe": "MG", "status": "EXISTING"}, "geometry": {"type": "Point", "coordinates": [104.218374408, -3.433321126999942]}}, {"type": "Feature", "properties": {"objectid": 24, "nama_pembangkit": "PLTMG Sako", "tipe": "MG", "status": "EXISTING"}, "geometry": {"type": "Point", "coordinates": [104.8319992240001, -2.954239968999957]}}, {"type": "Feature", "properties": {"objectid": 25, "nama_pembangkit": "PLTGU Muara Karang", "tipe": "GU", "status": "EXISTING"}, "geometry": {"type": "Point", "coordinates": [106.78322222031254, -6.110701784187455]}}, {"type": "Feature", "properties": {"objectid": 26, "nama_pembangkit": "PLTGU Priok", "tipe": "GU", "status": "EXISTING"}, "geometry": {"type": "Point", "coordinates": [106.86873392664293, -6.109184382499953]}}, {"type": "Feature", "properties": {"objectid": 27, "nama_pembangkit": "PLTGU Jawa 2", "tipe": "GU", "status": "EXISTING"}, "geometry": {"type": "Point", "coordinates": [106.87021338400011, -6.108330955999956]}}, {"type": "Feature", "properties": {"objectid": 28, "nama_pembangkit": "PLTGU Muara Tawar", "tipe": "GU", "status": "EXISTING"}, "geometry": {"type": "Point", "coordinates": [106.9981539891819, -6.087194685818128]}}, {"type": "Feature", "properties": {"objectid": 29, "nama_pembangkit": "PLTGU Jawa 1", "tipe": "GU", "status": "EXISTING"}, "geometry": {"type": "Point", "coordinates": [107.5875936, -6.24146]}}, {"type": "Feature", "properties": {"objectid": 30, "nama_pembangkit": "PLTGU Cilegon", "tipe": "GU", "status": "EXISTING"}, "geometry": {"type": "Point", "coordinates": [106.1050215720001, -5.930606720333287]}}, {"type": "Feature", "properties": {"objectid": 31, "nama_pembangkit": "PLTGU Tambaklorok", "tipe": "GU", "status": "EXISTING"}, "geometry": {"type": "Point", "coordinates": [110.43427353125006, -6.950695290624957]}}, {"type": "Feature", "properties": {"objectid": 32, "nama_pembangkit": "PLTGU Gresik", "tipe": "GU", "status": "EXISTING"}, "geometry": {"type": "Point", "coordinates": [112.66160899507697, -7.163708625153801]}}, {"type": "Feature", "properties": {"objectid": 33, "nama_pembangkit": "PLTGU MADURA", "tipe": "GU", "status": "RENCANA"}, "geometry": {"type": "Point", "coordinates": [113.888886153071, -7.13248751985644]}}, {"type": "Feature", "properties": {"objectid": 34, "nama_pembangkit": "PLTGU Grati", "tipe": "GU", "status": "EXISTING"}, "geometry": {"type": "Point", "coordinates": [113.02469987000005, -7.65127946771424]}}, {"type": "Feature", "properties": {"objectid": 35, "nama_pembangkit": "PLTDG Pesanggaran", "tipe": "DG", "status": "EXISTING"}, "geometry": {"type": "Point", "coordinates": [115.2115147788334, -8.717588463166626]}}, {"type": "Feature", "properties": {"objectid": 36, "nama_pembangkit": "PLTGU Tanjung Batu ", "tipe": "GU", "status": "EXISTING"}, "geometry": {"type": "Point", "coordinates": [117.05130519733343, -0.38130281833328666]}}, {"type": "Feature", "properties": {"objectid": 37, "nama_pembangkit": "PLTMG Bontang, wartsila", "tipe": "MG", "status": "EXISTING"}, "geometry": {"type": "Point", "coordinates": [117.45408450950005, 0.137429507000036]}}, {"type": "Feature", "properties": {"objectid": 38, "nama_pembangkit": "PLTMG MPP Kaltim Bontang", "tipe": "MG", "status": "EXISTING"}, "geometry": {"type": "Point", "coordinates": [117.4540885450001, 0.137424929000019]}}, {"type": "Feature", "properties": {"objectid": 39, "nama_pembangkit": "PLTG Sambera", "tipe": "G", "status": "EXISTING"}, "geometry": {"type": "Point", "coordinates": [117.2915764560001, -0.316651971999931]}}, {"type": "Feature", "properties": {"objectid": 40, "nama_pembangkit": "PLTMG Nunukan 2", "tipe": "MG", "status": "EXISTING"}, "geometry": {"type": "Point", "coordinates": [117.7362068, 4.0699352]}}, {"type": "Feature", "properties": {"objectid": 41, "nama_pembangkit": "PLTMG Gunung Belah", "tipe": "MG", "status": "EXISTING"}, "geometry": {"type": "Point", "coordinates": [117.59601714650005, 3.303846330000027]}}, {"type": "Feature", "properties": {"objectid": 42, "nama_pembangkit": "Sewa Tarakan", "tipe": "MG", "status": "EXISTING"}, "geometry": {"type": "Point", "coordinates": [117.5964216550001, 3.303879642000027]}}, {"type": "Feature", "properties": {"objectid": 43, "nama_pembangkit": "PLTG Bunyu", "tipe": "MG", "status": "EXISTING"}, "geometry": {"type": "Point", "coordinates": [117.844949336, 3.474853581000048]}}, {"type": "Feature", "properties": {"objectid": 44, "nama_pembangkit": "PLTMG Tanjung Selor", "tipe": "MG", "status": "EXISTING"}, "geometry": {"type": "Point", "coordinates": [117.36659210950006, 2.813915851000047]}}, {"type": "Feature", "properties": {"objectid": 45, "nama_pembangkit": "PLTMG Bangkanai", "tipe": "MG", "status": "EXISTING"}, "geometry": {"type": "Point", "coordinates": [115.13671509125007, -0.6229618654999455]}}, {"type": "Feature", "properties": {"objectid": 46, "nama_pembangkit": "PLTGU Senipah", "tipe": "GU", "status": "EXISTING"}, "geometry": {"type": "Point", "coordinates": [117.1360826550001, -0.987223668999945]}}, {"type": "Feature", "properties": {"objectid": 47, "nama_pembangkit": "PLTMG Luwuk ", "tipe": "MG", "status": "EXISTING"}, "geometry": {"type": "Point", "coordinates": [122.4954996, -1.325561]}}, {"type": "Feature", "properties": {"objectid": 48, "nama_pembangkit": "PLTGU Sengkang", "tipe": "GU", "status": "EXISTING"}, "geometry": {"type": "Point", "coordinates": [120.07299393700005, -4.176026203499949]}}, {"type": "Feature", "properties": {"objectid": 49, "nama_pembangkit": "PLTG Maleo", "tipe": "G", "status": "EXISTING"}, "geometry": {"type": "Point", "coordinates": [122.00628249550006, 0.46674692825004627]}}, {"type": "Feature", "properties": {"objectid": 50, "nama_pembangkit": "PLTMG Sorong (IP)", "tipe": "MG", "status": "EXISTING"}, "geometry": {"type": "Point", "coordinates": [131.24671623050006, -1.0206197119999274]}}, {"type": "Feature", "properties": {"objectid": 51, "nama_pembangkit": "Embalut Ex Sambera", "tipe": "G", "status": "RENCANA"}, "geometry": {"type": "Point", "coordinates": [117.05168725232, -0.382723556512871]}}, {"type": "Feature", "properties": {"objectid": 52, "nama_pembangkit": "PLTGU Kaltim-1", "tipe": "GU", "status": "RENCANA"}, "geometry": {"type": "Point", "coordinates": [117.289194347962, -0.614810974344948]}}, {"type": "Feature", "properties": {"objectid": 53, "nama_pembangkit": "PLTMG Tarakan 50 MW", "tipe": "MG", "status": "RENCANA"}, "geometry": {"type": "Point", "coordinates": [117.52223333333333, 3.3752722222222222]}}, {"type": "Feature", "properties": {"objectid": 54, "nama_pembangkit": "PLTG Kaltara/Kaltimra", "tipe": "G", "status": "RENCANA"}, "geometry": {"type": "Point", "coordinates": [117.56305555555555, 2.181111111111111]}}, {"type": "Feature", "properties": {"objectid": 55, "nama_pembangkit": "PLTMG Binalatung", "tipe": "MG", "status": "EXISTING"}, "geometry": {"type": "Point", "coordinates": [117.6507789, 3.3452348]}}, {"type": "Feature", "properties": {"objectid": 56, "nama_pembangkit": "PLTMG Kampung Satu", "tipe": "MG", "status": "EXISTING"}, "geometry": {"type": "Point", "coordinates": [117.6162657, 3.3162565]}}]}
