{"type": "FeatureCollection", "name": "pipa_gas", "crs": {"type": "name", "properties": {"name": "urn:ogc:def:crs:OGC:1.3:CRS84"}}, "features": [{"type": "Feature", "properties": {"objectid": 1, "bu_name": "Pertamina JTB", "tipe": "Hilir"}, "geometry": {"type": "LineString", "coordinates": [[111.7270634207366, -7.237443186291714], [111.71223766073815, -7.210208258517212], [111.71046682456411, -7.207199168477105], [111.70364977102194, -7.200994584589097], [111.69717889597993, -7.198384931279978], [111.69446272620922, -7.197799090741197], [111.69068139182255, -7.188265867428294], [111.68482298643474, -7.18419161277222], [111.68386433828036, -7.180357020154739], [111.68487624466552, -7.17359322484335], [111.68476972820392, -7.168214143532716], [111.68524905228112, -7.1643262926844375], [111.68764567266705, -7.161769897606117], [111.68646227300007, -7.160021103999952]]}}, {"type": "Feature", "properties": {"objectid": 2, "bu_name": "SPP", "tipe": "Hilir"}, "geometry": {"type": "LineString", "coordinates": [[112.6210031600001, -7.111767024999949], [112.62243413963944, -7.111068061886081], [112.65369672111805, -7.112932099964023], [112.66477443312414, -6.965939382960588], [112.61083333300007, -6.845791666999958]]}}, {"type": "Feature", "properties": {"objectid": 3, "bu_name": "HCML (MBH)", "tipe": "Hulu"}, "geometry": {"type": "LineString", "coordinates": [[114.30600833300002, -7.312694443999931], [114.29944683100007, -7.290787966999972]]}}, {"type": "Feature", "properties": {"objectid": 4, "bu_name": "HCML (MDA)", "tipe": "Hulu"}, "geometry": {"type": "LineString", "coordinates": [[114.5486694440001, -7.324966666999956], [114.51361775600003, -7.217140203999975]]}}, {"type": "Feature", "properties": {"objectid": 5, "bu_name": "PHE WMO", "tipe": "Hulu"}, "geometry": {"type": "LineString", "coordinates": [[112.6657076, -7.1676936], [112.6717335086151, -7.1663323527111595], [112.67031328912717, -7.005705528623336], [112.84414815445297, -6.870500633369927], [113.04506888900005, -6.842065555999966]]}}, {"type": "Feature", "properties": {"objectid": 6, "bu_name": "Medco Sampang (Wortel)", "tipe": "Hulu"}, "geometry": {"type": "LineString", "coordinates": [[113.29890861100012, -7.283835832999955], [113.26213629300003, -7.566261638999947]]}}, {"type": "Feature", "properties": {"objectid": 7, "bu_name": "Medco Sampang (Oyong)", "tipe": "Hulu"}, "geometry": {"type": "LineString", "coordinates": [[113.36348916700001, -7.308061388999931], [113.32631079600003, -7.577288923999959]]}}, {"type": "Feature", "properties": {"objectid": 8, "bu_name": "HCML (MAC)", "tipe": "Hulu"}, "geometry": {"type": "LineString", "coordinates": [[114.45, -7.42], [114.39855526100007, -7.254445216999954]]}}, {"type": "Feature", "properties": {"objectid": 9, "bu_name": "PHE OSES", "tipe": "Hulu"}, "geometry": {"type": "LineString", "coordinates": [[106.38963361100008, -5.069683888999975], [106.1050215720001, -5.930606720333287]]}}, {"type": "Feature", "properties": {"objectid": 10, "bu_name": "PCK2L", "tipe": "Hulu"}, "geometry": {"type": "LineString", "coordinates": [[113.3093013890001, -6.612602777999939], [112.67194654153825, -6.9430028382300275], [112.66001669783941, -7.113287154835992], [112.62243413963944, -7.111068061886081]]}}, {"type": "Feature", "properties": {"objectid": 11, "bu_name": "Tanjung Batu", "tipe": "PKS"}, "geometry": {"type": "LineString", "coordinates": [[117.399639, -0.453806], [117.399556, -0.452139], [117.3995, -0.452139], [117.399361, -0.452028], [117.399083, -0.451972], [117.399028, -0.451917], [117.398611, -0.451917], [117.398222, -0.451917], [117.397778, -0.451889], [117.397167, -0.451917], [117.396472, -0.451917], [117.395778, -0.451917], [117.395333, -0.451917], [117.395044, -0.451883], [117.395009, -0.451879], [117.394929, -0.451869], [117.394861, -0.451861], [117.394858, -0.451861], [117.394306, -0.451778], [117.393417, -0.451583], [117.392444, -0.451389], [117.391528, -0.451194], [117.3905, -0.451], [117.389694, -0.450833], [117.389028, -0.450694], [117.388361, -0.450556], [117.38725, -0.450333], [117.386139, -0.450111], [117.384361, -0.449778], [117.3835, -0.449583], [117.382611, -0.449389], [117.381667, -0.449222], [117.38075, -0.449028], [117.379694, -0.448806], [117.378861, -0.448639], [117.377778, -0.448444], [117.376583, -0.448167], [117.375694, -0.447972], [117.375, -0.447833], [117.374333, -0.447694], [117.373278, -0.447444], [117.372194, -0.44725], [117.37125, -0.447083], [117.370028, -0.446833], [117.369, -0.446639], [117.368111, -0.446472], [117.367, -0.44625], [117.366111, -0.446056], [117.365417, -0.445917], [117.364556, -0.44575], [117.363611, -0.445583], [117.362861, -0.445417], [117.362389, -0.445333], [117.3615, -0.445139], [117.360917, -0.445028], [117.359889, -0.444806], [117.359139, -0.444722], [117.35825, -0.4445], [117.357556, -0.444333], [117.356806, -0.444167], [117.356028, -0.444028], [117.355028, -0.443806], [117.354472, -0.443667], [117.353861, -0.443528], [117.353194, -0.443361], [117.3525, -0.443222], [117.351861, -0.443056], [117.35125, -0.442944], [117.350444, -0.442806], [117.349583, -0.442667], [117.348806, -0.4425], [117.347528, -0.442278], [117.346333, -0.442], [117.345667, -0.441861], [117.345028, -0.441722], [117.344361, -0.441556], [117.343389, -0.441333], [117.342778, -0.441194], [117.342306, -0.441056], [117.341639, -0.440889], [117.340972, -0.440778], [117.340222, -0.440639], [117.339472, -0.4405], [117.338833, -0.440306], [117.338083, -0.440222], [117.337, -0.440083], [117.336278, -0.439972], [117.335583, -0.439833], [117.334639, -0.439639], [117.333778, -0.439444], [117.333111, -0.439333], [117.332611, -0.439222], [117.33175, -0.439056], [117.331, -0.438833], [117.330472, -0.438722], [117.329861, -0.438639], [117.329, -0.4385], [117.32825, -0.438333], [117.327611, -0.438194], [117.327139, -0.438111], [117.326444, -0.437944], [117.325694, -0.437806], [117.324389, -0.437472], [117.32375, -0.437361], [117.322806, -0.437167], [117.322278, -0.437028], [117.321889, -0.436917], [117.321139, -0.436667], [117.321, -0.436722], [117.321, -0.436778], [117.320972, -0.436833], [117.320972, -0.439944], [117.3055366530001, -0.48017019499997105], [117.30499736900003, -0.4786412469999277], [117.3056022290001, -0.4754566129999489], [117.30438040500007, -0.47223587099995257], [117.30080970200004, -0.46765393499993024], [117.29581838000001, -0.46479506099996115], [117.28426732900004, -0.44726688899993405], [117.28262473100006, -0.44636867699995264], [117.24960562000001, -0.4311005479999608], [117.24351402500008, -0.4292210439999735], [117.24329845400007, -0.4291490709999266], [117.24309554500007, -0.4290767719999735], [117.24265881100007, -0.42888613299993494], [117.2421598950001, -0.42867489699995076], [117.24178592800001, -0.42854213099997196], [117.24135747100001, -0.4283779199999458], [117.2410038490001, -0.4282353099999341], [117.24067389200002, -0.42815826599996853], [117.24027547100002, -0.42803253999994695], [117.23995860800005, -0.42795334999993884], [117.23981631600009, -0.42788401699993983], [117.23962456800007, -0.42778549899992413], [117.23933826000007, -0.427688140999976], [117.23919858300007, -0.4276132889999644], [117.23905057500008, -0.4275298059999386], [117.23887923600012, -0.42741317399998024], [117.23831284200003, -0.4270410519999359], [117.23817822400008, -0.4269488919999276], [117.23756410900012, -0.4265629569999305], [117.23615350300008, -0.42560958499996104], [117.23516765400007, -0.4249747709999383], [117.2350765430001, -0.42491622899996173], [117.23499134500003, -0.4248502049999274], [117.23421460300005, -0.4244457719999559], [117.23340288300005, -0.42403239299994766], [117.23256549000007, -0.4236884329999384], [117.23178489300005, -0.42331358499995986], [117.23095253700001, -0.42282868699993514], [117.22999795300007, -0.42233396799997536], [117.22834978800006, -0.42117615099994055], [117.22779258600008, -0.42071475799997415], [117.2270376680001, -0.42014480399996046], [117.2263366740001, -0.41962008499996273], [117.225572768, -0.41900489499994364], [117.22492569500002, -0.4184620799999266], [117.22428760900004, -0.41793735799996057], [117.22346978500002, -0.4174126419999311], [117.22273105400006, -0.41675373299995044], [117.22196893400007, -0.4161551179999492], [117.22142071500002, -0.41551277899992556], [117.22080957900005, -0.4145809309999322], [117.22019844700003, -0.41380288499993867], [117.21972212200001, -0.41314244999995253], [117.2192008620001, -0.412436778999961], [117.21903010500012, -0.4122106029999486], [117.21869757600007, -0.4117311079999695], [117.21815834100005, -0.41099829699993506], [117.21771796700011, -0.4104192849999322], [117.21667544500008, -0.4089446129999601], [117.21614519700006, -0.40818465899997136], [117.21559697900011, -0.4075332719999665], [117.21495888400011, -0.4066285649999486], [117.21480610100002, -0.4064114349999386], [117.20869475000006, -0.39649581099996567], [117.20831728100006, -0.39571775699994305], [117.20793981400004, -0.39500303399995573], [117.20722084500005, -0.39432450899994365], [117.20711300200003, -0.39432451099997934], [117.20639405000009, -0.3943154819999677], [117.20573800300008, -0.3941978839999365], [117.20452996300003, -0.3940815399999451], [117.20367603500006, -0.39399542899997186], [117.20302395200008, -0.3939174859999639], [117.20262811100008, -0.3938064189999295], [117.20238233200007, -0.393655219999971], [117.20142587200007, -0.39349921199993787], [117.20049023700005, -0.3934629369999243], [117.19948310200004, -0.39348330399997167], [117.19846758000006, -0.39339285599993445], [117.19758596200006, -0.39327526299996407], [117.19511545400007, -0.39292247799994584], [117.19425189700007, -0.3929069029999255], [117.1936056510001, -0.39283204099996283], [117.1927915330001, -0.39271560499997804], [117.1924822840001, -0.3926511219999611], [117.19173637000006, -0.39260590299994647], [117.19122411400008, -0.39251544199993305], [117.19093553800008, -0.392500469999959], [117.18996594500004, -0.39243404599994847], [117.18908522400011, -0.39225312099995335], [117.18813261100001, -0.39220790599995325], [117.18741365500011, -0.392072212999949], [117.18642509400001, -0.39199080999992475], [117.18576006100011, -0.39191844699996636], [117.184833776, -0.3918391789999305], [117.18431316600004, -0.3918099119999283], [117.18386381900007, -0.3917556379999496], [117.18297411300011, -0.3916742329999465], [117.18219863500008, -0.39158836099994687], [117.1817698640001, -0.39152045599996654], [117.18130254300002, -0.39145713499993917], [117.1803028710001, -0.39134940999997525], [117.17976577700006, -0.3912581279999472], [117.17871851200005, -0.39112296499996546], [117.1777167570001, -0.391022942999939], [117.1769402860001, -0.3909460579999404], [117.17603588400004, -0.39080924799992545], [117.17513646400005, -0.3905808969999498], [117.1742651940001, -0.39035562499992693], [117.1733486810001, -0.3901738209999621], [117.172619499, -0.39009083199994166], [117.17190311500008, -0.3899379499999327], [117.17149778900011, -0.3898740699999621], [117.17112033600006, -0.38973836899992875], [117.17085691500006, -0.3897307469999305], [117.17048226000009, -0.38948505899998054], [117.17036027500001, -0.3894082619999608], [117.16972734900003, -0.3889784269999268], [117.16908927100008, -0.3885894069999267], [117.16884066500006, -0.38848368199995775], [117.16826246500011, -0.38809182399995734], [117.167291868, -0.387585195999975], [117.16647404900004, -0.3870695179999757], [117.16562028200008, -0.3865357459999359], [117.16482942500011, -0.38608339799992564], [117.16349934900006, -0.3853958309999257], [117.16299608000008, -0.3852963199999522], [117.16198954400011, -0.38521491399995966], [117.16105490400003, -0.3851606489999426], [117.16023709500007, -0.3851787589999276], [117.15910474200007, -0.3850973539999245], [117.15837680100003, -0.3850249899999767], [117.1576129130001, -0.38499786199997743], [117.15615703100002, -0.38489836899992724], [117.15568072300005, -0.3848350469999673], [117.15527631300006, -0.3848802909999449], [117.15451242400002, -0.38482602099998076], [117.15358677000006, -0.384771753999928], [117.15309705800007, -0.38470411599996623], [117.15274199900011, -0.3846903439999778], [117.15214886000001, -0.3845817879999345], [117.15125017100002, -0.38470846499996014], [117.15018072700002, -0.3846542009999325], [117.14927829800001, -0.3845093219999285], [117.14833840500012, -0.3844280509999294], [117.14757451500009, -0.3843556859999353], [117.14689150100003, -0.3838309559999402], [117.14614557900006, -0.3833876519999535], [117.14524689000007, -0.383559565999974], [117.14485148000006, -0.3844100169999365], [117.14477128300007, -0.38459018099996456], [117.14461070900006, -0.38472919199995204], [117.1442853100001, -0.384762870999964], [117.14350345000003, -0.3849076399999376], [117.14114886700008, -0.38431960699995216], [117.14074147600002, -0.38422487699995145], [117.14066669500005, -0.38420748799995863], [117.1404661250001, -0.38417954599992754], [117.14016242900004, -0.38415929299992513], [117.13951742500001, -0.38417722399992726], [117.13910983200003, -0.3842003509999472], [117.13818318400001, -0.3843558449999591], [117.1372935920001, -0.3844962349999719], [117.13646668600006, -0.38464538499994205], [117.13557698400007, -0.38485348699992983], [117.13475019000009, -0.38502539899997146], [117.13396383800011, -0.385283258999948], [117.13307862800002, -0.38542350599993824], [117.13218694900002, -0.38553631599995697], [117.13136212900008, -0.38564066699996147], [117.13050837200001, -0.38571305899995423], [117.12883681100004, -0.38625592199997527], [117.12573153000005, -0.3877415199999632], [117.12400187100002, -0.38808354599996164], [117.12364895900009, -0.3880361449999441], [117.12348062700005, -0.38800665199994455], [117.123342406, -0.3879984519999766], [117.12318406000009, -0.3880835579999484], [117.1230191730001, -0.3881873879999489], [117.12282882500006, -0.3883072509999579], [117.12275641600002, -0.38835080299998026], [117.12256341800003, -0.3883922179999786], [117.12179109100009, -0.38847261199993], [117.12093733000006, -0.38833691499996803], [117.12007458200003, -0.38811979299993027], [117.1194365020001, -0.387540774999934], [117.11859171800006, -0.3867174839999734], [117.11776492400008, -0.38691653599994424], [117.11692914200012, -0.3871427299999368], [117.1158147650001, -0.3873598799999627], [117.11488012600012, -0.3874956019999445], [117.11399940800004, -0.38763132299993686], [117.11313666300009, -0.3876856189999671], [117.11230088000002, -0.3877761029999647], [117.11140742000009, -0.3878735999999776], [117.11058437700001, -0.3879570719999492], [117.1096191800001, -0.38788018199994667], [117.10874205300001, -0.38778519699997105], [117.10530839500007, -0.3874611609999761], [117.10434743700011, -0.3873962189999247], [117.1034564790001, -0.3873077219999459], [117.10259246100009, -0.3872604839999667], [117.10175505200004, -0.38722245599996086], [117.099882277, -0.3872845489999577], [117.09897146600008, -0.38730246299996907], [117.09808326900009, -0.38726226899996163], [117.09537774400007, -0.38712688099997195], [117.09443018800005, -0.38717514199993275], [117.0935858250001, -0.38680825499994853], [117.09279613000001, -0.38626183999997465], [117.0921769790001, -0.38567695799997637], [117.09146553500011, -0.3851300209999522], [117.0907232080001, -0.3846007619999341], [117.08987805200002, -0.3843621789999361], [117.08897344800005, -0.38422531699995943], [117.08721178000008, -0.3840813629999502], [117.08573702400008, -0.38392731499993715], [117.08475536800006, -0.383747471999925], [117.08385505600006, -0.3835636649999401], [117.08305899200002, -0.38330214099994464], [117.08225174000006, -0.38307192899992515], [117.08196991900002, -0.3829779929999404], [117.08084571300003, -0.38264644799994585], [117.07915386600007, -0.3834358499999553], [117.07871197100008, -0.3839374299999463], [117.07799764800006, -0.3847297689999323], [117.07745010000008, -0.38538155999992796], [117.07714535800005, -0.38566702799994346], [117.0768156470001, -0.38585574099994346], [117.07605021300003, -0.3860177599999588], [117.07291844500003, -0.385765198999934], [117.06938822000006, -0.3854604569999651], [117.06849851200002, -0.385342848999926], [117.0675194910001, -0.3853754059999801], [117.066655405, -0.38519885999994585], [117.06487408100008, -0.3851110059999314], [117.06236291300002, -0.3849462909999488], [117.06126521400006, -0.3848865449999721], [117.05941214200004, -0.384598738999955], [117.05859384400003, -0.3844811799999661], [117.05699521700001, -0.3842934469999477], [117.05545122900003, -0.3831489999999462], [117.05474487600009, -0.38264232899996387], [117.05381904300009, -0.38223237899995866], [117.05273988500005, -0.3819773649999547], [117.0505945220001, -0.3817926719999605]]}}, {"type": "Feature", "properties": {"objectid": 12, "bu_name": "to KM 53 (Ext)", "tipe": "EXT"}, "geometry": {"type": "LineString", "coordinates": [[117.392589, 0.069017], [117.402706, 0.09209797], [117.431889, 0.105208], [117.431805, 0.107354]]}}, {"type": "Feature", "properties": {"objectid": 13, "bu_name": "Medco Bangkanai", "tipe": "Hulu"}, "geometry": {"type": "LineString", "coordinates": [[115.125385, -0.593181], [115.137919, -0.6202647]]}}, {"type": "Feature", "properties": {"objectid": 14, "bu_name": "Medco Tarakan", "tipe": "Hulu"}, "geometry": {"type": "LineString", "coordinates": [[117.6002821, 3.3217163], [117.6162657, 3.3162565]]}}]}
