{"type": "FeatureCollection", "name": "sumber_gas", "crs": {"type": "name", "properties": {"name": "urn:ogc:def:crs:OGC:1.3:CRS84"}}, "features": [{"type": "Feature", "properties": {"objectid": 1, "nama": "EMP Bentu", "tipe": "WELL"}, "geometry": {"type": "Point", "coordinates": [101.76, 0.283]}}, {"type": "Feature", "properties": {"objectid": 2, "nama": "PHE Jambi Merang", "tipe": "WELL"}, "geometry": {"type": "Point", "coordinates": [103.797, -2.103]}}, {"type": "Feature", "properties": {"objectid": 3, "nama": "Medco Grissik", "tipe": "WELL"}, "geometry": {"type": "Point", "coordinates": [103.766, -2.387]}}, {"type": "Feature", "properties": {"objectid": 4, "nama": "Pertamina JTB", "tipe": "DIST"}, "geometry": {"type": "Point", "coordinates": [111.7271, -7.2374]}}, {"type": "Feature", "properties": {"objectid": 5, "nama": "SPP Gundih", "tipe": "DIST"}, "geometry": {"type": "Point", "coordinates": [111.4645405, -7.2008586]}}, {"type": "Feature", "properties": {"objectid": 6, "nama": "KEI", "tipe": "WELL"}, "geometry": {"type": "Point", "coordinates": [115.9271, -6.9584]}}, {"type": "Feature", "properties": {"objectid": 7, "nama": "SIPL (WHP-B)", "tipe": "WELL"}, "geometry": {"type": "Point", "coordinates": [112.5721772, -6.818789]}}, {"type": "Feature", "properties": {"objectid": 8, "nama": "PHE WMO", "tipe": "WELL"}, "geometry": {"type": "Point", "coordinates": [113.045, -6.842]}}, {"type": "Feature", "properties": {"objectid": 9, "nama": "HCML (MDA)", "tipe": "WELL"}, "geometry": {"type": "Point", "coordinates": [114.549, -7.325]}}, {"type": "Feature", "properties": {"objectid": 10, "nama": "HCML (MBH)", "tipe": "WELL"}, "geometry": {"type": "Point", "coordinates": [114.306, -7.313]}}, {"type": "Feature", "properties": {"objectid": 11, "nama": "HCML (MAC)", "tipe": "WELL"}, "geometry": {"type": "Point", "coordinates": [114.45, -7.42]}}, {"type": "Feature", "properties": {"objectid": 12, "nama": "Medco Sampang (Wortel)", "tipe": "WELL"}, "geometry": {"type": "Point", "coordinates": [113.2989, -7.2838]}}, {"type": "Feature", "properties": {"objectid": 13, "nama": "Medco Sampang (Oyong)", "tipe": "WELL"}, "geometry": {"type": "Point", "coordinates": [113.3635, -7.3081]}}, {"type": "Feature", "properties": {"objectid": 14, "nama": "PCK2L (Bukit Tua)", "tipe": "WELL"}, "geometry": {"type": "Point", "coordinates": [113.309, -6.613]}}, {"type": "Feature", "properties": {"objectid": 15, "nama": "PHE OSES", "tipe": "WELL"}, "geometry": {"type": "Point", "coordinates": [106.389634, -5.069684]}}, {"type": "Feature", "properties": {"objectid": 16, "nama": "PT Perta Arun Gas", "tipe": "ORU"}, "geometry": {"type": "Point", "coordinates": [97.0655237, 5.2167041]}}, {"type": "Feature", "properties": {"objectid": 17, "nama": "PT PGN", "tipe": "FSRU"}, "geometry": {"type": "Point", "coordinates": [106.0996291, -5.3919562]}}, {"type": "Feature", "properties": {"objectid": 18, "nama": "PT Nusantara Regas", "tipe": "FSRU"}, "geometry": {"type": "Point", "coordinates": [106.7581067, -6.101439]}}]}
