{
"type": "FeatureCollection",
"name": "potensi_limbah_industri_tebu",
"crs": { "type": "name", "properties": { "name": "urn:ogc:def:crs:OGC:1.3:CRS84" } },
"features": [
{ "type": "Feature", "properties": { "objectid": 1, "perusahaan": "PTPN II", "nama_pabri": "Kuala Madu", "potensi__m": 6.143188, "jenis_tekn": "Biomass combustion", "kapasitas_": 4000.0, "jenis_limb": "Bagasse", "alamat_jal": "Jln. Medan-Tanjung Pura Km. 32, Desa Kuala Begumit Stabat", "alamat_des": "Kuala Begumit Stabat", "alamat_kec": " ", "alamat_kot": "Langkat", "alamat_pro": "Sumatera Utara", "latitude": 3.675099, "longitude": 98.477853 }, "geometry": { "type": "Point", "coordinates": [ 98.477852600000062, 3.675099500000044 ] } },
{ "type": "Feature", "properties": { "objectid": 2, "perusahaan": "PTPN VII", "nama_pabri": "Cinta Manis", "potensi__m": 8.446884, "jenis_tekn": "Biomass combustion", "kapasitas_": 5500.0, "jenis_limb": "Bagasse", "alamat_jal": " ", "alamat_des": "Ketiau Lubuk Keliat", "alamat_kec": " ", "alamat_kot": "Ogan Ilir", "alamat_pro": "Sumatera Selatan", "latitude": -3.437909, "longitude": 104.669553 }, "geometry": { "type": "Point", "coordinates": [ 104.669553, -3.437909 ] } },
{ "type": "Feature", "properties": { "objectid": 3, "perusahaan": "PTPN VII", "nama_pabri": "Bunga Mayang", "potensi__m": 11.825637, "jenis_tekn": "Biomass combustion", "kapasitas_": 7700.0, "jenis_limb": "Bagasse", "alamat_jal": " ", "alamat_des": "Negara Tulangbawang", "alamat_kec": " ", "alamat_kot": "Lampung Utara", "alamat_pro": "Lampung", "latitude": -4.589084, "longitude": 104.875012 }, "geometry": { "type": "Point", "coordinates": [ 104.875012, -4.589084 ] } },
{ "type": "Feature", "properties": { "objectid": 4, "perusahaan": "PTPN IX", "nama_pabri": "Pangka", "potensi__m": 2.764435, "jenis_tekn": "Biomass combustion", "kapasitas_": 1800.0, "jenis_limb": "Bagasse", "alamat_jal": "Jl. Raya Pangkah - Slawi", "alamat_des": "Pangkah", "alamat_kec": "Pangkah", "alamat_kot": "Tegal", "alamat_pro": "Jawa Tengah", "latitude": -6.975506, "longitude": 109.169892 }, "geometry": { "type": "Point", "coordinates": [ 109.169892, -6.975506 ] } },
{ "type": "Feature", "properties": { "objectid": 5, "perusahaan": "PTPN IX", "nama_pabri": "Sragi", "potensi__m": 5.682449, "jenis_tekn": "Biomass combustion", "kapasitas_": 3700.0, "jenis_limb": "Bagasse", "alamat_jal": "Jl. Raya Sragi No. 38", "alamat_des": "Sragi", "alamat_kec": "Sragi", "alamat_kot": "Pekalongan", "alamat_pro": "Jawa Tengah", "latitude": -6.925569, "longitude": 109.562056 }, "geometry": { "type": "Point", "coordinates": [ 109.562055556000075, -6.925569443999962 ] } },
{ "type": "Feature", "properties": { "objectid": 6, "perusahaan": "PTPN IX", "nama_pabri": "Sunga/Rendeng", "potensi__m": 4.453811, "jenis_tekn": "Biomass combustion", "kapasitas_": 2900.0, "jenis_limb": "Bagasse", "alamat_jal": "Jl. Jend. Sudirman Rendeng", "alamat_des": " ", "alamat_kec": "KotaKudus", "alamat_kot": "Kudus", "alamat_pro": "Jawa Tengah", "latitude": -6.803206, "longitude": 110.860663 }, "geometry": { "type": "Point", "coordinates": [ 110.860663200000033, -6.803205799999944 ] } },
{ "type": "Feature", "properties": { "objectid": 7, "perusahaan": "PTPN IX", "nama_pabri": "Mojo", "potensi__m": 4.99134, "jenis_tekn": "Biomass combustion", "kapasitas_": 3250.0, "jenis_limb": "Bagasse", "alamat_jal": "Jl. Raharjo 4", "alamat_des": "Sragen Kulon", "alamat_kec": "Sragen", "alamat_kot": "Sragen", "alamat_pro": "Jawa Tengah", "latitude": -7.431667, "longitude": 111.017589 }, "geometry": { "type": "Point", "coordinates": [ 111.017588889000081, -7.431666666999945 ] } },
{ "type": "Feature", "properties": { "objectid": 8, "perusahaan": "PTPN IX", "nama_pabri": "Tasikmadu", "potensi__m": 4.99134, "jenis_tekn": "Biomass combustion", "kapasitas_": 3250.0, "jenis_limb": "Bagasse", "alamat_jal": "Jl. Tasikmadu - Karanganyar", "alamat_des": "Ngijo", "alamat_kec": "Tasikmadu", "alamat_kot": "Karanganyar", "alamat_pro": "Jawa Tengah", "latitude": -7.576931, "longitude": 110.929056 }, "geometry": { "type": "Point", "coordinates": [ 110.929055556000037, -7.576930555999979 ] } },
{ "type": "Feature", "properties": { "objectid": 9, "perusahaan": "PTPN X", "nama_pabri": "Krembung", "potensi__m": 3.839493, "jenis_tekn": "Biomass combustion", "kapasitas_": 2500.0, "jenis_limb": "Bagasse", "alamat_jal": "Krembung Timur", "alamat_des": " ", "alamat_kec": "Krembung", "alamat_kot": "Sidoarjo", "alamat_pro": "Jawa Timur", "latitude": -7.512856, "longitude": 112.619717 }, "geometry": { "type": "Point", "coordinates": [ 112.619716667000034, -7.512855555999977 ] } },
{ "type": "Feature", "properties": { "objectid": 10, "perusahaan": "PTPN X", "nama_pabri": "Gempolkrep", "potensi__m": 9.982681, "jenis_tekn": "Biomass combustion", "kapasitas_": 6500.0, "jenis_limb": "Bagasse", "alamat_jal": "Sukosewu", "alamat_des": " ", "alamat_kec": "Gempolkrep", "alamat_kot": "Mojokerto", "alamat_pro": "Jawa Timur", "latitude": -7.456508, "longitude": 112.3825 }, "geometry": { "type": "Point", "coordinates": [ 112.3825, -7.456508332999931 ] } },
{ "type": "Feature", "properties": { "objectid": 11, "perusahaan": "PTPN X", "nama_pabri": "Djombang Baru", "potensi__m": 4.607391, "jenis_tekn": "Biomass combustion", "kapasitas_": 3000.0, "jenis_limb": "Bagasse", "alamat_jal": "Gang 1, Pulo Lor", "alamat_des": " ", "alamat_kec": "Jombang", "alamat_kot": "Jombang", "alamat_pro": "Jawa Timur", "latitude": -7.538086, "longitude": 112.227858 }, "geometry": { "type": "Point", "coordinates": [ 112.227858333000086, -7.538086110999927 ] } },
{ "type": "Feature", "properties": { "objectid": 12, "perusahaan": "PTPN X", "nama_pabri": "Tjoekir", "potensi__m": 6.373558, "jenis_tekn": "Biomass combustion", "kapasitas_": 4150.0, "jenis_limb": "Bagasse", "alamat_jal": " ", "alamat_des": "Cukir", "alamat_kec": "Diwek", "alamat_kot": "Jombang", "alamat_pro": "Jawa Timur", "latitude": -7.609853, "longitude": 112.240644 }, "geometry": { "type": "Point", "coordinates": [ 112.240644444000054, -7.609852777999947 ] } },
{ "type": "Feature", "properties": { "objectid": 13, "perusahaan": "PTPN X", "nama_pabri": "Lestari", "potensi__m": 6.143188, "jenis_tekn": "Biomass combustion", "kapasitas_": 4000.0, "jenis_limb": "Bagasse", "alamat_jal": "Ngrombot", "alamat_des": " ", "alamat_kec": "Patianrowo", "alamat_kot": "Nganjuk", "alamat_pro": "Jawa Timur", "latitude": -7.559703, "longitude": 112.113397 }, "geometry": { "type": "Point", "coordinates": [ 112.113397222000117, -7.559702777999973 ] } },
{ "type": "Feature", "properties": { "objectid": 14, "perusahaan": "PTPN X", "nama_pabri": "Meritjan", "potensi__m": 4.377021, "jenis_tekn": "Biomass combustion", "kapasitas_": 2850.0, "jenis_limb": "Bagasse", "alamat_jal": "Mojoroto", "alamat_des": " ", "alamat_kec": " ", "alamat_kot": "Kediri", "alamat_pro": "Jawa Timur", "latitude": -7.781706, "longitude": 112.002997 }, "geometry": { "type": "Point", "coordinates": [ 112.00299722200009, -7.781705555999963 ] } },
{ "type": "Feature", "properties": { "objectid": 15, "perusahaan": "PTPN X", "nama_pabri": "Pesantren Baru", "potensi__m": 9.214782, "jenis_tekn": "Biomass combustion", "kapasitas_": 6000.0, "jenis_limb": "Bagasse", "alamat_jal": "Pesantren", "alamat_des": " ", "alamat_kec": " ", "alamat_kot": "Kediri", "alamat_pro": "Jawa Timur", "latitude": -7.837553, "longitude": 112.056381 }, "geometry": { "type": "Point", "coordinates": [ 112.056380556000022, -7.837552777999974 ] } },
{ "type": "Feature", "properties": { "objectid": 16, "perusahaan": "PTPN X", "nama_pabri": "Ngadirejo", "potensi__m": 9.214782, "jenis_tekn": "Biomass combustion", "kapasitas_": 6000.0, "jenis_limb": "Bagasse", "alamat_jal": "Ds. Ngrombeh, Kec. Kras", "alamat_des": "Ngrombeh", "alamat_kec": "Kras", "alamat_kot": "Kediri", "alamat_pro": "Jawa Timur", "latitude": -7.928583, "longitude": 111.971939 }, "geometry": { "type": "Point", "coordinates": [ 111.971938889000057, -7.928583332999949 ] } },
{ "type": "Feature", "properties": { "objectid": 17, "perusahaan": "PTPN X", "nama_pabri": "Modjopangong", "potensi__m": 4.377021, "jenis_tekn": "Biomass combustion", "kapasitas_": 2850.0, "jenis_limb": "Bagasse", "alamat_jal": "Jl. Kawi, Kec. Kauman", "alamat_des": " ", "alamat_kec": "Kauman", "alamat_kot": "Kediri", "alamat_pro": "Jawa Timur", "latitude": -8.049172, "longitude": 111.873017 }, "geometry": { "type": "Point", "coordinates": [ 111.873016667000059, -8.049172221999982 ] } },
{ "type": "Feature", "properties": { "objectid": 18, "perusahaan": "PTPN XI", "nama_pabri": "Soedono", "potensi__m": 4.146652, "jenis_tekn": "Biomass combustion", "kapasitas_": 2700.0, "jenis_limb": "Bagasse", "alamat_jal": "Jl. Sambirobyong No. 1", "alamat_des": " ", "alamat_kec": "Geneng", "alamat_kot": "Ngawi", "alamat_pro": "Jawa Timur", "latitude": -7.496696, "longitude": 111.419235 }, "geometry": { "type": "Point", "coordinates": [ 111.419235, -7.496696 ] } },
{ "type": "Feature", "properties": { "objectid": 19, "perusahaan": "PTPN XI", "nama_pabri": "Poerwodadie", "potensi__m": 3.609123, "jenis_tekn": "Biomass combustion", "kapasitas_": 2350.0, "jenis_limb": "Bagasse", "alamat_jal": "Jl. Raya Ngawi-Maospati", "alamat_des": " ", "alamat_kec": " ", "alamat_kot": "Magetan", "alamat_pro": "Jawa Timur", "latitude": -7.57101, "longitude": 111.422833 }, "geometry": { "type": "Point", "coordinates": [ 111.422833, -7.57101 ] } },
{ "type": "Feature", "properties": { "objectid": 20, "perusahaan": "PTPN XI", "nama_pabri": "Redjosarie", "potensi__m": 4.069862, "jenis_tekn": "Biomass combustion", "kapasitas_": 2650.0, "jenis_limb": "Bagasse", "alamat_jal": "Jl. Bhayangkara", "alamat_des": " ", "alamat_kec": " ", "alamat_kot": "Magetan", "alamat_pro": "Jawa Timur", "latitude": -7.689507, "longitude": 111.414925 }, "geometry": { "type": "Point", "coordinates": [ 111.414925, -7.689507 ] } },
{ "type": "Feature", "properties": { "objectid": 21, "perusahaan": "PTPN XI", "nama_pabri": "Pagottan", "potensi__m": 5.06813, "jenis_tekn": "Biomass combustion", "kapasitas_": 3300.0, "jenis_limb": "Bagasse", "alamat_jal": "Ji. Raya Ponorogo km 9", "alamat_des": " ", "alamat_kec": "Geger", "alamat_kot": "Madiun", "alamat_pro": "Jawa Timur", "latitude": -7.70289, "longitude": 111.538359 }, "geometry": { "type": "Point", "coordinates": [ 111.538359, -7.70289 ] } },
{ "type": "Feature", "properties": { "objectid": 22, "perusahaan": "PTPN XI", "nama_pabri": "Kedawoeng", "potensi__m": 3.839493, "jenis_tekn": "Biomass combustion", "kapasitas_": 2500.0, "jenis_limb": "Bagasse", "alamat_jal": "Jl. Banyu Biru, Grati", "alamat_des": " ", "alamat_kec": "Grati", "alamat_kot": "Pasuruan", "alamat_pro": "Jawa Timur", "latitude": -7.7049, "longitude": 112.976668 }, "geometry": { "type": "Point", "coordinates": [ 112.976668, -7.7049 ] } },
{ "type": "Feature", "properties": { "objectid": 23, "perusahaan": "PTPN XI", "nama_pabri": "Wonolangan", "potensi__m": 2.841224, "jenis_tekn": "Biomass combustion", "kapasitas_": 1850.0, "jenis_limb": "Bagasse", "alamat_jal": "Jl. Raya Dringu", "alamat_des": " ", "alamat_kec": " ", "alamat_kot": "Probolinggo", "alamat_pro": "Jawa Timur", "latitude": -7.76688, "longitude": 113.246717 }, "geometry": { "type": "Point", "coordinates": [ 113.246717000000103, -7.76688 ] } },
{ "type": "Feature", "properties": { "objectid": 24, "perusahaan": "PTPN XI", "nama_pabri": "Gending", "potensi__m": 2.534065, "jenis_tekn": "Biomass combustion", "kapasitas_": 1650.0, "jenis_limb": "Bagasse", "alamat_jal": "Jl. Raya Sebaung", "alamat_des": " ", "alamat_kec": "Gending", "alamat_kot": "Probolinggo", "alamat_pro": "Jawa Timur", "latitude": -7.810604, "longitude": 113.312766 }, "geometry": { "type": "Point", "coordinates": [ 113.312766, -7.810604 ] } },
{ "type": "Feature", "properties": { "objectid": 25, "perusahaan": "PTPN XI", "nama_pabri": "Djatiroto", "potensi__m": 10.750579, "jenis_tekn": "Biomass combustion", "kapasitas_": 7000.0, "jenis_limb": "Bagasse", "alamat_jal": "Nyeroan", "alamat_des": " ", "alamat_kec": "Jatiroto", "alamat_kot": "Lumajang", "alamat_pro": "Jawa Timur", "latitude": -8.1265, "longitude": 113.363387 }, "geometry": { "type": "Point", "coordinates": [ 113.363387000000102, -8.1265 ] } },
{ "type": "Feature", "properties": { "objectid": 26, "perusahaan": "PTPN XI", "nama_pabri": "Semboro", "potensi__m": 10.750579, "jenis_tekn": "Biomass combustion", "kapasitas_": 7000.0, "jenis_limb": "Bagasse", "alamat_jal": "Jl. Rejoagung Semboro", "alamat_des": " ", "alamat_kec": " ", "alamat_kot": "Jember", "alamat_pro": "Jawa Timur", "latitude": -8.206866, "longitude": 113.442436 }, "geometry": { "type": "Point", "coordinates": [ 113.442436300000054, -8.206865599999958 ] } },
{ "type": "Feature", "properties": { "objectid": 27, "perusahaan": "PTPN XI", "nama_pabri": "Wringinanom", "potensi__m": 1.842956, "jenis_tekn": "Biomass combustion", "kapasitas_": 1200.0, "jenis_limb": "Bagasse", "alamat_jal": "Jl. Wringinanom Pb Sudirman", "alamat_des": " ", "alamat_kec": " ", "alamat_kot": "Situbondo", "alamat_pro": "Jawa Timur", "latitude": -7.706503, "longitude": 113.974316 }, "geometry": { "type": "Point", "coordinates": [ 113.974316, -7.706503 ] } },
{ "type": "Feature", "properties": { "objectid": 28, "perusahaan": "PTPN XI", "nama_pabri": "Olean", "potensi__m": 1.842956, "jenis_tekn": "Biomass combustion", "kapasitas_": 1200.0, "jenis_limb": "Bagasse", "alamat_jal": "Jl. Sucipto", "alamat_des": " ", "alamat_kec": " ", "alamat_kot": "Situbondo", "alamat_pro": "Jawa Timur", "latitude": -7.677168, "longitude": 114.014235 }, "geometry": { "type": "Point", "coordinates": [ 114.014235, -7.677168 ] } },
{ "type": "Feature", "properties": { "objectid": 29, "perusahaan": "PTPN XI", "nama_pabri": "Pandjie", "potensi__m": 2.764435, "jenis_tekn": "Biomass combustion", "kapasitas_": 1800.0, "jenis_limb": "Bagasse", "alamat_jal": "Jl. Raya Banyuwangi km 3, Pandjie", "alamat_des": " ", "alamat_kec": " ", "alamat_kot": "Situbondo", "alamat_pro": "Jawa Timur", "latitude": -7.698314, "longitude": 114.031607 }, "geometry": { "type": "Point", "coordinates": [ 114.031607, -7.698314 ] } },
{ "type": "Feature", "properties": { "objectid": 30, "perusahaan": "PTPN XI", "nama_pabri": "Pradjekan", "potensi__m": 5.06813, "jenis_tekn": "Biomass combustion", "kapasitas_": 3300.0, "jenis_limb": "Bagasse", "alamat_jal": "Jl. Pradjekan Kidul", "alamat_des": " ", "alamat_kec": " ", "alamat_kot": "Bondowoso", "alamat_pro": "Jawa Timur", "latitude": -7.810031, "longitude": 113.972366 }, "geometry": { "type": "Point", "coordinates": [ 113.972366, -7.810031 ] } },
{ "type": "Feature", "properties": { "objectid": 31, "perusahaan": "PTPN XII", "nama_pabri": "Glenmore", "potensi__m": 12.286376, "jenis_tekn": "Biomass combustion", "kapasitas_": 8000.0, "jenis_limb": "Bagasse", "alamat_jal": "Karangharjo", "alamat_des": " ", "alamat_kec": "Glenmore", "alamat_kot": "Banyuwangi", "alamat_pro": "Jawa Timur", "latitude": -8.349951, "longitude": 114.047763 }, "geometry": { "type": "Point", "coordinates": [ 114.047763, -8.349951 ] } },
{ "type": "Feature", "properties": { "objectid": 32, "perusahaan": "PTPN XIV", "nama_pabri": "Bone", "potensi__m": 3.993072, "jenis_tekn": "Biomass combustion", "kapasitas_": 2600.0, "jenis_limb": "Bagasse", "alamat_jal": " ", "alamat_des": "Arasoe", "alamat_kec": "Cina", "alamat_kot": "Bone", "alamat_pro": "Sulawesi Selatan", "latitude": -4.726431, "longitude": 120.318347 }, "geometry": { "type": "Point", "coordinates": [ 120.318347, -4.726431 ] } },
{ "type": "Feature", "properties": { "objectid": 33, "perusahaan": "PTPN XIV", "nama_pabri": "Camming", "potensi__m": 5.06813, "jenis_tekn": "Biomass combustion", "kapasitas_": 3300.0, "jenis_limb": "Bagasse", "alamat_jal": " ", "alamat_des": "Pitumbidange", "alamat_kec": " ", "alamat_kot": "Bone", "alamat_pro": "Sulawesi Selatan", "latitude": -4.857832, "longitude": 120.087673 }, "geometry": { "type": "Point", "coordinates": [ 120.087673000000109, -4.857832 ] } },
{ "type": "Feature", "properties": { "objectid": 34, "perusahaan": "PTPN XIV", "nama_pabri": "Talakar", "potensi__m": 3.685913, "jenis_tekn": "Biomass combustion", "kapasitas_": 2400.0, "jenis_limb": "Bagasse", "alamat_jal": " ", "alamat_des": "Pa'rappunganta", "alamat_kec": "Polombangkeng Utara", "alamat_kot": "TAKALAR", "alamat_pro": "Sulawesi Selatan", "latitude": -5.355989, "longitude": 119.498487 }, "geometry": { "type": "Point", "coordinates": [ 119.498487, -5.355989 ] } },
{ "type": "Feature", "properties": { "objectid": 35, "perusahaan": "PT. PG. Rajawali I", "nama_pabri": "Krebet Baru I", "potensi__m": 8.446884, "jenis_tekn": "Biomass combustion", "kapasitas_": 5500.0, "jenis_limb": "Bagasse", "alamat_jal": "Krebet", "alamat_des": " ", "alamat_kec": "Bulalawang", "alamat_kot": "Malang", "alamat_pro": "Jawa Timur", "latitude": -8.091799, "longitude": 112.6369 }, "geometry": { "type": "Point", "coordinates": [ 112.6369, -8.091799 ] } },
{ "type": "Feature", "properties": { "objectid": 36, "perusahaan": "PT. PG. Rajawali I", "nama_pabri": "Rejoagung Baru", "potensi__m": 9.214782, "jenis_tekn": "Biomass combustion", "kapasitas_": 6000.0, "jenis_limb": "Bagasse", "alamat_jal": " ", "alamat_des": "Patihan", "alamat_kec": "Mangunharjo", "alamat_kot": "Madiun", "alamat_pro": "Jawa Timur", "latitude": -7.606283, "longitude": 111.531578 }, "geometry": { "type": "Point", "coordinates": [ 111.531578, -7.606283 ] } },
{ "type": "Feature", "properties": { "objectid": 37, "perusahaan": "PT. Candi", "nama_pabri": "Candi", "potensi__m": 4.223442, "jenis_tekn": "Biomass combustion", "kapasitas_": 2750.0, "jenis_limb": "Bagasse", "alamat_jal": " ", "alamat_des": "Candi", "alamat_kec": "Candi", "alamat_kot": "Sidoarjo", "alamat_pro": "Jawa Timur", "latitude": -7.476117, "longitude": 112.715546 }, "geometry": { "type": "Point", "coordinates": [ 112.715546, -7.476117 ] } },
{ "type": "Feature", "properties": { "objectid": 38, "perusahaan": "PT. PG. Rajawali II", "nama_pabri": "Sindang Laut", "potensi__m": 2.918014, "jenis_tekn": "Biomass combustion", "kapasitas_": 1900.0, "jenis_limb": "Bagasse", "alamat_jal": " ", "alamat_des": "Cipeujeuh Wetan", "alamat_kec": "Lemahabang", "alamat_kot": "Cirebon", "alamat_pro": "Jawa Barat", "latitude": -6.826766, "longitude": 108.623897 }, "geometry": { "type": "Point", "coordinates": [ 108.623897, -6.826766 ] } },
{ "type": "Feature", "properties": { "objectid": 39, "perusahaan": "PT. PG. Rajawali II", "nama_pabri": "Tersana Baru", "potensi__m": 5.37529, "jenis_tekn": "Biomass combustion", "kapasitas_": 3500.0, "jenis_limb": "Bagasse", "alamat_jal": " ", "alamat_des": "Babakan", "alamat_kec": "Babakan", "alamat_kot": "Cirebon", "alamat_pro": "Jawa Barat", "latitude": -6.867164, "longitude": 108.724326 }, "geometry": { "type": "Point", "coordinates": [ 108.724326, -6.867164 ] } },
{ "type": "Feature", "properties": { "objectid": 40, "perusahaan": "PT. PG. Rajawali II", "nama_pabri": "Jatitujuh", "potensi__m": 6.911087, "jenis_tekn": "Biomass combustion", "kapasitas_": 4500.0, "jenis_limb": "Bagasse", "alamat_jal": " ", "alamat_des": "Sumber", "alamat_kec": "Jatitujuh", "alamat_kot": "Majalengka", "alamat_pro": "Jawa Barat", "latitude": -6.595528, "longitude": 108.237574 }, "geometry": { "type": "Point", "coordinates": [ 108.237574300000063, -6.595527699999934 ] } },
{ "type": "Feature", "properties": { "objectid": 41, "perusahaan": "PT. Madubaru", "nama_pabri": "Madukismo", "potensi__m": 5.37529, "jenis_tekn": "Biomass combustion", "kapasitas_": 3500.0, "jenis_limb": "Bagasse", "alamat_jal": " ", "alamat_des": "Tirtonirmolo", "alamat_kec": "Kasihan", "alamat_kot": "Bantul", "alamat_pro": "Yogyakarta", "latitude": -7.83227, "longitude": 110.345337 }, "geometry": { "type": "Point", "coordinates": [ 110.345337, -7.83227 ] } },
{ "type": "Feature", "properties": { "objectid": 42, "perusahaan": "PT. Kebon Agung", "nama_pabri": "Kebon Agung", "potensi__m": 19.965361, "jenis_tekn": "Biomass combustion", "kapasitas_": 13000.0, "jenis_limb": "Bagasse", "alamat_jal": " ", "alamat_des": "Kebonagung", "alamat_kec": "Pakisaji", "alamat_kot": "Malang", "alamat_pro": "Jawa Timur", "latitude": -8.028652, "longitude": 112.613 }, "geometry": { "type": "Point", "coordinates": [ 112.612999800000011, -8.028651499999967 ] } },
{ "type": "Feature", "properties": { "objectid": 43, "perusahaan": "PT. Kebon Agung", "nama_pabri": "Trangkil", "potensi__m": 13.054275, "jenis_tekn": "Biomass combustion", "kapasitas_": 8500.0, "jenis_limb": "Bagasse", "alamat_jal": " ", "alamat_des": "Trangkil", "alamat_kec": "Trangkil", "alamat_kot": "Pati", "alamat_pro": "Jawa Tengah", "latitude": -6.660844, "longitude": 111.075761 }, "geometry": { "type": "Point", "coordinates": [ 111.075761, -6.660844 ] } },
{ "type": "Feature", "properties": { "objectid": 44, "perusahaan": "PT. Gunung Madu Plantations", "nama_pabri": "GMP", "potensi__m": 27.644346, "jenis_tekn": "Biomass combustion", "kapasitas_": 18000.0, "jenis_limb": "Bagasse", "alamat_jal": " ", "alamat_des": "Gunung Batin Baru", "alamat_kec": "Ngunyai", "alamat_kot": "Lampung Tengah", "alamat_pro": "Lampung", "latitude": -4.704903, "longitude": 105.291219 }, "geometry": { "type": "Point", "coordinates": [ 105.291219, -4.704903 ] } },
{ "type": "Feature", "properties": { "objectid": 45, "perusahaan": "PT. Gula Putih Mataram", "nama_pabri": "GPM", "potensi__m": 15.35797, "jenis_tekn": "Biomass combustion", "kapasitas_": 10000.0, "jenis_limb": "Bagasse", "alamat_jal": " ", "alamat_des": "Mataram Udik", "alamat_kec": "Mataram", "alamat_kot": "Lampung Tengah", "alamat_pro": "Lampung", "latitude": -4.56224, "longitude": 105.419917 }, "geometry": { "type": "Point", "coordinates": [ 105.419917, -4.56224 ] } },
{ "type": "Feature", "properties": { "objectid": 46, "perusahaan": "PT. Sweet Indolampung", "nama_pabri": "SIL", "potensi__m": 13.822173, "jenis_tekn": "Biomass combustion", "kapasitas_": 9000.0, "jenis_limb": "Bagasse", "alamat_jal": " ", "alamat_des": "Menggala", "alamat_kec": "Menggala", "alamat_kot": "Tulang Bawang", "alamat_pro": "Lampung", "latitude": -4.504467, "longitude": 105.336674 }, "geometry": { "type": "Point", "coordinates": [ 105.336674, -4.504467 ] } },
{ "type": "Feature", "properties": { "objectid": 47, "perusahaan": "PT. Indolampung Perkasa", "nama_pabri": "ILP", "potensi__m": 13.822173, "jenis_tekn": "Biomass combustion", "kapasitas_": 9000.0, "jenis_limb": "Bagasse", "alamat_jal": " ", "alamat_des": "Gedung Meneng", "alamat_kec": "Gedung Meneng", "alamat_kot": "Tulang Bawang", "alamat_pro": "Lampung", "latitude": -4.441613, "longitude": 105.56679 }, "geometry": { "type": "Point", "coordinates": [ 105.56679, -4.441613 ] } },
{ "type": "Feature", "properties": { "objectid": 48, "perusahaan": "PT. Pemuka Sakti Mas Indah", "nama_pabri": "PSMI", "potensi__m": 15.35797, "jenis_tekn": "Biomass combustion", "kapasitas_": 10000.0, "jenis_limb": "Bagasse", "alamat_jal": "Kp. Gunung Waras", "alamat_des": " ", "alamat_kec": "Pakuan Ratu", "alamat_kot": "Way Kanan", "alamat_pro": "Lampung", "latitude": -4.257831, "longitude": 104.741035 }, "geometry": { "type": "Point", "coordinates": [ 104.741034900000045, -4.257830799999965 ] } },
{ "type": "Feature", "properties": { "objectid": 49, "perusahaan": "PT. Laju Perdana Indah", "nama_pabri": "Pakis Baru", "potensi__m": 5.836029, "jenis_tekn": "Biomass combustion", "kapasitas_": 3800.0, "jenis_limb": "Bagasse", "alamat_jal": " ", "alamat_des": "Pakis", "alamat_kec": "Tayu", "alamat_kot": "Pati", "alamat_pro": "Jawa Tengah", "latitude": -6.571013, "longitude": 111.037892 }, "geometry": { "type": "Point", "coordinates": [ 111.037892, -6.571013 ] } },
{ "type": "Feature", "properties": { "objectid": 50, "perusahaan": "PT. Laju Perdana Indah", "nama_pabri": "Komering", "potensi__m": 12.286376, "jenis_tekn": "Biomass combustion", "kapasitas_": 8000.0, "jenis_limb": "Bagasse", "alamat_jal": " ", "alamat_des": "Meluai Indah", "alamat_kec": "Cempaka", "alamat_kot": "OGAN KOMERING ULU TIMUR", "alamat_pro": "Sumatera Selatan", "latitude": -3.860759, "longitude": 104.74934 }, "geometry": { "type": "Point", "coordinates": [ 104.74934, -3.860759 ] } },
{ "type": "Feature", "properties": { "objectid": 51, "perusahaan": "PT. PG Gorontalo", "nama_pabri": "Gorontalo", "potensi__m": 6.143188, "jenis_tekn": "Biomass combustion", "kapasitas_": 4000.0, "jenis_limb": "Bagasse", "alamat_jal": " ", "alamat_des": "Lakeya", "alamat_kec": "Boliyohuto", "alamat_kot": "Gorontalo", "alamat_pro": "Gorontalo", "latitude": 0.710803, "longitude": 122.527485 }, "geometry": { "type": "Point", "coordinates": [ 122.527485400000046, 0.710803400000032 ] } },
{ "type": "Feature", "properties": { "objectid": 52, "perusahaan": "PT. Bulog", "nama_pabri": "GMM", "potensi__m": 9.214782, "jenis_tekn": "Biomass combustion", "kapasitas_": 6000.0, "jenis_limb": "Bagasse", "alamat_jal": " ", "alamat_des": "Tinapan", "alamat_kec": "Todanan", "alamat_kot": "Blora", "alamat_pro": "Jawa Tengah", "latitude": -6.985467, "longitude": 111.203741 }, "geometry": { "type": "Point", "coordinates": [ 111.203741, -6.985467 ] } },
{ "type": "Feature", "properties": { "objectid": 53, "perusahaan": "PT. Adikarya Gemilang", "nama_pabri": "AKG", "potensi__m": 12.286376, "jenis_tekn": "Biomass combustion", "kapasitas_": 8000.0, "jenis_limb": "Bagasse", "alamat_jal": " ", "alamat_des": "Pesawahan", "alamat_kec": "Telukbetung Selatan", "alamat_kot": "Lampung Tengah", "alamat_pro": "Lampung", "latitude": -5.454644, "longitude": 105.310883 }, "geometry": { "type": "Point", "coordinates": [ 105.310883, -5.454644 ] } },
{ "type": "Feature", "properties": { "objectid": 54, "perusahaan": "PT. Kebun Tebu Mas", "nama_pabri": "KTM", "potensi__m": 18.429564, "jenis_tekn": "Biomass combustion", "kapasitas_": 12000.0, "jenis_limb": "Bagasse", "alamat_jal": " ", "alamat_des": "Pule", "alamat_kec": " ", "alamat_kot": "Lamongan", "alamat_pro": "Jawa Timur", "latitude": -7.322289, "longitude": 112.215475 }, "geometry": { "type": "Point", "coordinates": [ 112.215475, -7.322289 ] } },
{ "type": "Feature", "properties": { "objectid": 55, "perusahaan": "PT. Sukses Mantap Sejahtera", "nama_pabri": "Tambora Sugar Estate", "potensi__m": 15.35797, "jenis_tekn": "Biomass combustion", "kapasitas_": 10000.0, "jenis_limb": "Bagasse", "alamat_jal": " ", "alamat_des": "Doropeti", "alamat_kec": " ", "alamat_kot": "Dompu", "alamat_pro": "Nusa Tenggara Barat", "latitude": -8.332271, "longitude": 117.81811 }, "geometry": { "type": "Point", "coordinates": [ 117.81811, -8.332271 ] } },
{ "type": "Feature", "properties": { "objectid": 56, "perusahaan": "PT Rejoso Manis Indo", "nama_pabri": "RMI", "potensi__m": 9.214782, "jenis_tekn": "Biomass combustion", "kapasitas_": 6000.0, "jenis_limb": "Bagasse", "alamat_jal": " ", "alamat_des": "Blitar", "alamat_kec": " ", "alamat_kot": "Wlingi", "alamat_pro": "Jawa Timur", "latitude": -8.196864, "longitude": 112.342517 }, "geometry": { "type": "Point", "coordinates": [ 112.342517, -8.196864 ] } },
{ "type": "Feature", "properties": { "objectid": 57, "perusahaan": "PT. PG. Rajawali I", "nama_pabri": "Krebet Baru II", "potensi__m": 9.675521, "jenis_tekn": "Biomass combustion", "kapasitas_": 6300.0, "jenis_limb": "Bagasse", "alamat_jal": "Jl. Raya Krebet", "alamat_des": "Krebet", "alamat_kec": " ", "alamat_kot": "Malang", "alamat_pro": "Jawa Timur", "latitude": -8.096539, "longitude": 112.636415 }, "geometry": { "type": "Point", "coordinates": [ 112.636415, -8.096539 ] } }
]
}
