{
"type": "FeatureCollection",
"name": "potensi_limbah_industri_pulp_paper",
"crs": { "type": "name", "properties": { "name": "urn:ogc:def:crs:OGC:1.3:CRS84" } },
"features": [
{ "type": "Feature", "properties": { "objectid": 1, "id_unit_pe": 3.0, "nama_unit_": " ", "perusahaan": "Indah Kiat Pulp & Paper Tbk.", "perusaha_1": " ", "alamat_jal": "Jl. Raya Minas-perawang Km.26", "alamat_des": " ", "alamat_kec": " ", "alamat_kot": "Siak", "alamat_pro": "Riau", "jenis_peng": "Pulp dan Kertas", "kapasitas_": 2593021.0, "unit_kapas": "ton pulp/year", "jenis_limb": "Wood waste, black liquor", "jenis_tekn": "Biomass combustion", "potensi_te": 2108.931295, "potensi_in": 2051.280244, "potensi__1": 57.651052, "unit_poten": "MWe", "latitude": 0.688536, "longitude": 101.609118 }, "geometry": { "type": "Point", "coordinates": [ 101.609118, 0.688536 ] } },
{ "type": "Feature", "properties": { "objectid": 2, "id_unit_pe": 7.0, "nama_unit_": " ", "perusahaan": "LONTAR PAPYRUS PULP & PAPER IND. (WKS)", "perusaha_1": " ", "alamat_jal": "Desa Tebing Tinggi", "alamat_des": " ", "alamat_kec": " ", "alamat_kot": " Tanjung Jabung Barat", "alamat_pro": "Jambi", "jenis_peng": "Pulp dan Kertas", "kapasitas_": 1021000.0, "unit_kapas": "ton pulp/year", "jenis_limb": "Wood waste, black liquor", "jenis_tekn": "Biomass combustion", "potensi_te": 830.390056, "potensi_in": 807.689999, "potensi__1": 22.700057, "unit_poten": "MWe", "latitude": -6.247016, "longitude": 106.646325 }, "geometry": { "type": "Point", "coordinates": [ 106.646325, -6.247016 ] } },
{ "type": "Feature", "properties": { "objectid": 3, "id_unit_pe": 8.0, "nama_unit_": " ", "perusahaan": "RIAU ANDALAN PULP & PAPER (RAPP), PT", "perusaha_1": " ", "alamat_jal": "Jl. Lintas Timur, Kel. Pangkalan Kerinci Timur, Kec. Pkl Kerinci", "alamat_des": " ", "alamat_kec": " ", "alamat_kot": "Pelawan", "alamat_pro": "Riau", "jenis_peng": "Pulp dan Kertas", "kapasitas_": 2090000.0, "unit_kapas": "ton pulp/year", "jenis_limb": "Wood waste, black liquor", "jenis_tekn": "Biomass combustion", "potensi_te": 1699.819017, "potensi_in": 1653.351712, "potensi__1": 46.467305, "unit_poten": "MWe", "latitude": 0.438981, "longitude": 101.89089 }, "geometry": { "type": "Point", "coordinates": [ 101.89089, 0.438981 ] } },
{ "type": "Feature", "properties": { "objectid": 4, "id_unit_pe": 9.0, "nama_unit_": " ", "perusahaan": "TANJUNG ENIM LESTARI, PT", "perusaha_1": " ", "alamat_jal": "Desa Niru-Tebat Agung, Kec. Rembang Dangku", "alamat_des": " ", "alamat_kec": " ", "alamat_kot": "Muara Enim", "alamat_pro": "Sumatera Selatan", "jenis_peng": "Pulp dan Kertas", "kapasitas_": 450000.0, "unit_kapas": "ton pulp/year", "jenis_limb": "Wood waste, black liquor", "jenis_tekn": "Biomass combustion", "potensi_te": 365.98974, "potensi_in": 355.984818, "potensi__1": 10.004922, "unit_poten": "MWe", "latitude": -3.431995, "longitude": 104.035552 }, "geometry": { "type": "Point", "coordinates": [ 104.035552, -3.431995 ] } },
{ "type": "Feature", "properties": { "objectid": 5, "id_unit_pe": 10.0, "nama_unit_": " ", "perusahaan": "TOBA PULP LESTARI, PT", "perusaha_1": " ", "alamat_jal": "Desa Sosor Ladang, Kec. Pangombusan", "alamat_des": " ", "alamat_kec": " ", "alamat_kot": "Toba Samosir", "alamat_pro": "Sumatera Utara", "jenis_peng": "Pulp dan Kertas", "kapasitas_": 240000.0, "unit_kapas": "ton pulp/year", "jenis_limb": "Wood waste, black liquor", "jenis_tekn": "Biomass combustion", "potensi_te": 195.194528, "potensi_in": 189.85857, "potensi__1": 5.335958, "unit_poten": "MWe", "latitude": 2.463748, "longitude": 99.196049 }, "geometry": { "type": "Point", "coordinates": [ 99.196049, 2.463748 ] } },
{ "type": "Feature", "properties": { "objectid": 6, "id_unit_pe": 16.0, "nama_unit_": " ", "perusahaan": "Kiani Kertas", "perusaha_1": " ", "alamat_jal": " ", "alamat_des": " ", "alamat_kec": " ", "alamat_kot": " ", "alamat_pro": "Kalimantan Timur", "jenis_peng": "Pulp dan Kertas", "kapasitas_": 525000.0, "unit_kapas": "ton pulp/year", "jenis_limb": "Wood waste, black liquor", "jenis_tekn": "Biomass combustion", "potensi_te": 426.988031, "potensi_in": 415.315621, "potensi__1": 11.672409, "unit_poten": "MWe", "latitude": 0.0, "longitude": 0.0 }, "geometry": null },
{ "type": "Feature", "properties": { "objectid": 7, "id_unit_pe": 47.0, "nama_unit_": " ", "perusahaan": "Pabrik Kertas Indonesia", "perusaha_1": " ", "alamat_jal": "Desa Bangun, Kec. Pungging", "alamat_des": " ", "alamat_kec": " ", "alamat_kot": "Mojokerto", "alamat_pro": "Jawa Timur", "jenis_peng": "Pulp dan Kertas", "kapasitas_": 145000.0, "unit_kapas": "ton pulp/year", "jenis_limb": "Wood waste, black liquor", "jenis_tekn": "Biomass combustion", "potensi_te": 117.930027, "potensi_in": 114.706219, "potensi__1": 3.223808, "unit_poten": "MWe", "latitude": 0.0, "longitude": 0.0 }, "geometry": null },
{ "type": "Feature", "properties": { "objectid": 8, "id_unit_pe": 57.0, "nama_unit_": " ", "perusahaan": "OKI Pulp and Paper Mills", "perusaha_1": " ", "alamat_jal": " ", "alamat_des": " ", "alamat_kec": " ", "alamat_kot": "Palembang", "alamat_pro": "Sumatera Selatan", "jenis_peng": "Pulp dan Kertas", "kapasitas_": 2000000.0, "unit_kapas": "ton pulp/year", "jenis_limb": "Wood waste, black liquor", "jenis_tekn": "Biomass combustion", "potensi_te": 1626.621069, "potensi_in": 1582.154748, "potensi__1": 44.466321, "unit_poten": "MWe", "latitude": -2.749069, "longitude": 105.279727 }, "geometry": { "type": "Point", "coordinates": [ 105.279727, -2.749069 ] } },
{ "type": "Feature", "properties": { "objectid": 9, "id_unit_pe": 66.0, "nama_unit_": " ", "perusahaan": "Kertas Trimitra Mandiri", "perusaha_1": " ", "alamat_jal": "Jl. Sapan Raya Km 1, No 1, Kel. Tegal Luar, Kec. Bojongsoang", "alamat_des": " ", "alamat_kec": " ", "alamat_kot": "Bandung", "alamat_pro": "Jawa Barat", "jenis_peng": "Pulp dan Kertas", "kapasitas_": 94900.0, "unit_kapas": "ton pulp/year", "jenis_limb": "Wood waste, black liquor", "jenis_tekn": "Biomass combustion", "potensi_te": 77.18317, "potensi_in": 75.073243, "potensi__1": 2.109927, "unit_poten": "MWe", "latitude": -6.974527, "longitude": 107.688388 }, "geometry": { "type": "Point", "coordinates": [ 107.688388, -6.974527 ] } },
{ "type": "Feature", "properties": { "objectid": 10, "id_unit_pe": 71.0, "nama_unit_": " ", "perusahaan": "San Fu Indonesia", "perusaha_1": " ", "alamat_jal": "Kp. Ciater, Desa Ciparungsari, Kec. Cibatu", "alamat_des": " ", "alamat_kec": " ", "alamat_kot": "Purwakarta", "alamat_pro": "Jawa Barat", "jenis_peng": "Pulp dan Kertas", "kapasitas_": 16000.0, "unit_kapas": "ton pulp/year", "jenis_limb": "Wood waste, black liquor", "jenis_tekn": "Biomass combustion", "potensi_te": 13.012969, "potensi_in": 12.657238, "potensi__1": 0.355731, "unit_poten": "MWe", "latitude": -6.483523, "longitude": 107.556734 }, "geometry": { "type": "Point", "coordinates": [ 107.556734, -6.483523 ] } },
{ "type": "Feature", "properties": { "objectid": 11, "id_unit_pe": 76.0, "nama_unit_": " ", "perusahaan": "Tugu Cilosari", "perusaha_1": " ", "alamat_jal": "Jl. Raya Pasar Kemis Km.7", "alamat_des": " ", "alamat_kec": " ", "alamat_kot": "Tangerang", "alamat_pro": "Banten", "jenis_peng": "Pulp dan Kertas", "kapasitas_": 125000.0, "unit_kapas": "ton pulp/year", "jenis_limb": "Wood waste, black liquor", "jenis_tekn": "Biomass combustion", "potensi_te": 101.663817, "potensi_in": 98.884672, "potensi__1": 2.779145, "unit_poten": "MWe", "latitude": -6.229271, "longitude": 106.639805 }, "geometry": { "type": "Point", "coordinates": [ 106.639805, -6.229271 ] } }
]
}
