{
"type": "FeatureCollection",
"name": "potensi_limbah_industri_padi",
"crs": { "type": "name", "properties": { "name": "urn:ogc:def:crs:OGC:1.3:CRS84" } },
"features": [
{ "type": "Feature", "properties": { "nama_unit_": "PENGGILINGAN PADI \"UD. RAHARJA\"", "kapasitas_": 12500.0, "potensi__m": 0.935052, "alamat_jal": "DSN. JATIREJO RT 07/01, GLAGAHAGUNG", "alamat_des": "GLAGAHAGUNG", "alamat_kec": "PURWOHARJO", "alamat_kot": "BANYUWANGI", "alamat_pro": "Jawa Timur", "lat": null, "long": null, "jenis_tekn": "Biomass combustion", "objectid_1": 1, "latitude": -8.52251, "longitude": 114.250687 }, "geometry": { "type": "Point", "coordinates": [ 114.250687, -8.52251 ] } },
{ "type": "Feature", "properties": { "nama_unit_": "PENGGILINGAN PADI \"SAELAN\"", "kapasitas_": 15000.0, "potensi__m": 1.514784, "alamat_jal": "DUKUH SENDANG RT.012 RW.03", "alamat_des": "KRAJAN", "alamat_kec": "PARANG", "alamat_kot": "MAGETAN", "alamat_pro": "Jawa Timur", "lat": null, "long": null, "jenis_tekn": "Biomass combustion", "objectid_1": 2, "latitude": -7.646532, "longitude": 111.394902 }, "geometry": { "type": "Point", "coordinates": [ 111.394902, -7.646532 ] } },
{ "type": "Feature", "properties": { "nama_unit_": "PENGGILINGAN PADI KELILING \"AGUS\"", "kapasitas_": 32398.0, "potensi__m": 1.611631, "alamat_jal": "BANCAR RT 002 RW 01", "alamat_des": "BANCAR", "alamat_kec": "BUNGKAL", "alamat_kot": "PONOROGO", "alamat_pro": "Jawa Timur", "lat": null, "long": null, "jenis_tekn": "Biomass combustion", "objectid_1": 3, "latitude": -7.981494, "longitude": 111.460126 }, "geometry": { "type": "Point", "coordinates": [ 111.460126, -7.981494 ] } },
{ "type": "Feature", "properties": { "nama_unit_": "PENGGILINGAN PADI KELILING \"SUPRIYADI\"", "kapasitas_": 32398.0, "potensi__m": 1.611631, "alamat_jal": "BANCAR RT 003 RW 02", "alamat_des": "BANCAR", "alamat_kec": "BUNGKAL", "alamat_kot": "PONOROGO", "alamat_pro": "Jawa Timur", "lat": null, "long": null, "jenis_tekn": "Biomass combustion", "objectid_1": 4, "latitude": -7.9861, "longitude": 111.458296 }, "geometry": { "type": "Point", "coordinates": [ 111.458296, -7.9861 ] } },
{ "type": "Feature", "properties": { "nama_unit_": "PENGGILINGAN PADI \"SUMIRAN\"", "kapasitas_": 60000.0, "potensi__m": 3.927218, "alamat_jal": "CERME", "alamat_des": "CERME", "alamat_kec": "PACE", "alamat_kot": "NGANJUK", "alamat_pro": "Jawa Timur", "lat": null, "long": null, "jenis_tekn": "Biomass combustion", "objectid_1": 5, "latitude": -7.675563, "longitude": 111.918509 }, "geometry": { "type": "Point", "coordinates": [ 111.918509, -7.675563 ] } },
{ "type": "Feature", "properties": { "nama_unit_": "HULLER \"LASMAN\"", "kapasitas_": 44000.0, "potensi__m": 0.767989, "alamat_jal": "PAJENG", "alamat_des": "PAJENG", "alamat_kec": "GONDANG", "alamat_kot": "BOJONEGORO", "alamat_pro": "Jawa Timur", "lat": null, "long": null, "jenis_tekn": "Biomass combustion", "objectid_1": 6, "latitude": -7.426519, "longitude": 111.898205 }, "geometry": { "type": "Point", "coordinates": [ 111.898205, -7.426519 ] } },
{ "type": "Feature", "properties": { "nama_unit_": "HULLER \"WS SOEPRANOTO\"", "kapasitas_": 37500.0, "potensi__m": 1.227256, "alamat_jal": "DSN TIKUNG", "alamat_des": "SENGATEN", "alamat_kec": "GONDANG", "alamat_kot": "BOJONEGORO", "alamat_pro": "Jawa Timur", "lat": null, "long": null, "jenis_tekn": "Biomass combustion", "objectid_1": 7, "latitude": -7.4029, "longitude": 111.84035 }, "geometry": { "type": "Point", "coordinates": [ 111.84035, -7.4029 ] } },
{ "type": "Feature", "properties": { "nama_unit_": "CIN PAH,GP", "kapasitas_": 17262.0, "potensi__m": 0.774762, "alamat_jal": "KP CUKANG GALIH RT 002/02", "alamat_des": "CIAKAR", "alamat_kec": "PANONGAN", "alamat_kot": "TANGERANG", "alamat_pro": "BANTEN", "lat": null, "long": null, "jenis_tekn": "Biomass combustion", "objectid_1": 8, "latitude": -6.241872, "longitude": 106.546812 }, "geometry": { "type": "Point", "coordinates": [ 106.546812, -6.241872 ] } },
{ "type": "Feature", "properties": { "nama_unit_": "UD \"HASMA WIJAYA\"", "kapasitas_": 7000.0, "potensi__m": 0.785444, "alamat_jal": "DUSUN KROYE DESA LINGSAR KEC LINGSAR", "alamat_des": "PETELUAN INDAH", "alamat_kec": "LINGSAR", "alamat_kot": "LOMBOK BARAT", "alamat_pro": "Nusa Tenggara Barat", "lat": null, "long": null, "jenis_tekn": "Biomass combustion", "objectid_1": 9, "latitude": -8.575153, "longitude": 116.157181 }, "geometry": { "type": "Point", "coordinates": [ 116.157181, -8.575153 ] } },
{ "type": "Feature", "properties": { "nama_unit_": "HULLER \" MARYAM\"", "kapasitas_": 200000.0, "potensi__m": 6.732374, "alamat_jal": "DSN BULUH KOTTEH", "alamat_des": "BULUH", "alamat_kec": "SOCAH", "alamat_kot": "BANGKALAN", "alamat_pro": "Jawa Timur", "lat": null, "long": null, "jenis_tekn": "Biomass combustion", "objectid_1": 10, "latitude": -7.107217, "longitude": 112.710739 }, "geometry": { "type": "Point", "coordinates": [ 112.710739000000103, -7.107217 ] } },
{ "type": "Feature", "properties": { "nama_unit_": "PENGGILINGAN PADI \"DEWI SRI\"", "kapasitas_": 30000.0, "potensi__m": 2.042154, "alamat_jal": "DUSUN JOSARI KULON RT 003 RW 01", "alamat_des": "JOSARI", "alamat_kec": "JETIS", "alamat_kot": "PONOROGO", "alamat_pro": "Jawa Timur", "lat": null, "long": null, "jenis_tekn": "Biomass combustion", "objectid_1": 11, "latitude": -7.927886, "longitude": 111.469355 }, "geometry": { "type": "Point", "coordinates": [ 111.469355, -7.927886 ] } },
{ "type": "Feature", "properties": { "nama_unit_": "PENGGILINGAN PADI \"HJ.SUKARMI\"", "kapasitas_": 20000.0, "potensi__m": 1.178166, "alamat_jal": "DSN BINTOYO RT.05 RW.01", "alamat_des": "BINTOYO", "alamat_kec": "PADAS", "alamat_kot": "NGAWI", "alamat_pro": "Jawa Timur", "lat": null, "long": null, "jenis_tekn": "Biomass combustion", "objectid_1": 12, "latitude": -7.46008, "longitude": 111.554602 }, "geometry": { "type": "Point", "coordinates": [ 111.554602, -7.46008 ] } },
{ "type": "Feature", "properties": { "nama_unit_": "PENGGILINGAN PADI \"FAJAR TANI\"", "kapasitas_": 31200.0, "potensi__m": 2.12384, "alamat_jal": "DUSUN BOTO RT 02 RW 03", "alamat_des": "SEGORO PURO", "alamat_kec": "REJOSO", "alamat_kot": "PASURUAN", "alamat_pro": "Jawa Timur", "lat": null, "long": null, "jenis_tekn": "Biomass combustion", "objectid_1": 13, "latitude": -7.677752, "longitude": 112.97179 }, "geometry": { "type": "Point", "coordinates": [ 112.97179, -7.677752 ] } },
{ "type": "Feature", "properties": { "nama_unit_": "PENGGILINGAN PADI \"LANCAR JAYA\"", "kapasitas_": 83200.0, "potensi__m": 6.472654, "alamat_jal": "DUSUN RAKET RT 02 RW 03", "alamat_des": "KAWIS REJO", "alamat_kec": "REJOSO", "alamat_kot": "PASURUAN", "alamat_pro": "Jawa Timur", "lat": null, "long": null, "jenis_tekn": "Biomass combustion", "objectid_1": 14, "latitude": -7.695017, "longitude": 112.948079 }, "geometry": { "type": "Point", "coordinates": [ 112.948079, -7.695017 ] } },
{ "type": "Feature", "properties": { "nama_unit_": "PENGGILINGAN PADI \"PARI KENCONO AGUNG\"", "kapasitas_": 31200.0, "potensi__m": 2.042154, "alamat_jal": "DUSUN KARANGANYAR RT 02 RW 04", "alamat_des": "REJOSO KIDUL", "alamat_kec": "REJOSO", "alamat_kot": "PASURUAN", "alamat_pro": "Jawa Timur", "lat": null, "long": null, "jenis_tekn": "Biomass combustion", "objectid_1": 15, "latitude": -7.690759, "longitude": 112.943583 }, "geometry": { "type": "Point", "coordinates": [ 112.943583000000103, -7.690759 ] } },
{ "type": "Feature", "properties": { "nama_unit_": "PENGGILINGAN PADI \"RAJAWALI\"", "kapasitas_": 10800.0, "potensi__m": 0.8402, "alamat_jal": "DUSUN KARANGPANDAN", "alamat_des": "KARANG PANDAN", "alamat_kec": "REJOSO", "alamat_kot": "PASURUAN", "alamat_pro": "Jawa Timur", "lat": null, "long": null, "jenis_tekn": "Biomass combustion", "objectid_1": 16, "latitude": -7.681337, "longitude": 112.911419 }, "geometry": { "type": "Point", "coordinates": [ 112.911419, -7.681337 ] } },
{ "type": "Feature", "properties": { "nama_unit_": "PENGGILINGAN PADI \"PP JAINUL\"", "kapasitas_": 40000.0, "potensi__m": 2.992166, "alamat_jal": "DUSUN BABATAN RT 02 RW 01", "alamat_des": "SAMBIREJO", "alamat_kec": "REJOSO", "alamat_kot": "PASURUAN", "alamat_pro": "Jawa Timur", "lat": null, "long": null, "jenis_tekn": "Biomass combustion", "objectid_1": 17, "latitude": -7.674371, "longitude": 112.935133 }, "geometry": { "type": "Point", "coordinates": [ 112.935133, -7.674371 ] } },
{ "type": "Feature", "properties": { "nama_unit_": "PENGGILINGAN PADI \"BAROKAH\"", "kapasitas_": 15000.0, "potensi__m": 1.166945, "alamat_jal": "DESA PENATAAN", "alamat_des": "PENATAAN", "alamat_kec": "WINONGAN", "alamat_kot": "PASURUAN", "alamat_pro": "Jawa Timur", "lat": null, "long": null, "jenis_tekn": "Biomass combustion", "objectid_1": 18, "latitude": -7.73179, "longitude": 112.946437 }, "geometry": { "type": "Point", "coordinates": [ 112.946437, -7.73179 ] } },
{ "type": "Feature", "properties": { "nama_unit_": "INDUSTRI PENGGILINGAN PADI \" KARYOSO\"", "kapasitas_": 25000.0, "potensi__m": 1.944908, "alamat_jal": "DUSUN TUGU", "alamat_des": "TUGU", "alamat_kec": "REJOTANGAN", "alamat_kot": "TULUNGAGUNG", "alamat_pro": "Jawa Timur", "lat": null, "long": null, "jenis_tekn": "Biomass combustion", "objectid_1": 19, "latitude": -8.145427, "longitude": 112.033292 }, "geometry": { "type": "Point", "coordinates": [ 112.033292, -8.145427 ] } },
{ "type": "Feature", "properties": { "nama_unit_": "HULLER \"KUSNI\"", "kapasitas_": 9375.0, "potensi__m": 0.701289, "alamat_jal": "RT 08 RW 02", "alamat_des": "BAYEM TAMAN", "alamat_kec": "KARTOHARJO", "alamat_kot": "MAGETAN", "alamat_pro": "Jawa Timur", "lat": null, "long": null, "jenis_tekn": "Biomass combustion", "objectid_1": 20, "latitude": -7.534943, "longitude": 111.431502 }, "geometry": { "type": "Point", "coordinates": [ 111.431502, -7.534943 ] } },
{ "type": "Feature", "properties": { "nama_unit_": "EDI PRAYITNO", "kapasitas_": 12000.0, "potensi__m": 1.131039, "alamat_jal": "DUSUN KRAJAN RW 06 RT 03", "alamat_des": "KEBAMAN", "alamat_kec": "SRONO", "alamat_kot": "BANYUWANGI", "alamat_pro": "Jawa Timur", "lat": null, "long": null, "jenis_tekn": "Biomass combustion", "objectid_1": 21, "latitude": -8.399466, "longitude": 114.260922 }, "geometry": { "type": "Point", "coordinates": [ 114.260922, -8.399466 ] } },
{ "type": "Feature", "properties": { "nama_unit_": "PENGGILINGAN PADI \"SUKANDI/UD SUUMBER REJEKI\"", "kapasitas_": 11500.0, "potensi__m": 0.748416, "alamat_jal": "DSN TUNDAN RT 4 RW 3", "alamat_des": "PURWOTENGAH", "alamat_kec": "PAPAR", "alamat_kot": "KEDIRI", "alamat_pro": "Jawa Timur", "lat": null, "long": null, "jenis_tekn": "Biomass combustion", "objectid_1": 22, "latitude": -7.732078, "longitude": 112.041541 }, "geometry": { "type": "Point", "coordinates": [ 112.041541, -7.732078 ] } },
{ "type": "Feature", "properties": { "nama_unit_": "PENGGILINGAN PADI \"YUWANSA EKO Y\"", "kapasitas_": 18540.0, "potensi__m": 1.11643, "alamat_jal": "BANJARDOWO", "alamat_des": "BANJAR DOWO", "alamat_kec": "LENGKONG", "alamat_kot": "NGANJUK", "alamat_pro": "Jawa Timur", "lat": null, "long": null, "jenis_tekn": "Biomass combustion", "objectid_1": 23, "latitude": -7.539547, "longitude": 112.05604 }, "geometry": { "type": "Point", "coordinates": [ 112.05604, -7.539547 ] } },
{ "type": "Feature", "properties": { "nama_unit_": "PENGGILINGAN PADI \"SUMARDIONO\"", "kapasitas_": 25300.0, "potensi__m": 0.908422, "alamat_jal": "BANJARDOWO", "alamat_des": "BANJAR DOWO", "alamat_kec": "LENGKONG", "alamat_kot": "NGANJUK", "alamat_pro": "Jawa Timur", "lat": null, "long": null, "jenis_tekn": "Biomass combustion", "objectid_1": 24, "latitude": -7.538908, "longitude": 112.049349 }, "geometry": { "type": "Point", "coordinates": [ 112.049349, -7.538908 ] } },
{ "type": "Feature", "properties": { "nama_unit_": "PENGGILINGAN PADI  \"RAMELAN\"", "kapasitas_": 22570.0, "potensi__m": 1.53638, "alamat_jal": "BANJARDOWO", "alamat_des": "BANJAR DOWO", "alamat_kec": "LENGKONG", "alamat_kot": "NGANJUK", "alamat_pro": "Jawa Timur", "lat": null, "long": null, "jenis_tekn": "Biomass combustion", "objectid_1": 25, "latitude": -7.540656, "longitude": 112.059773 }, "geometry": { "type": "Point", "coordinates": [ 112.059773, -7.540656 ] } },
{ "type": "Feature", "properties": { "nama_unit_": "PENGGILINGAN PADI \"BAHRUROJI\"", "kapasitas_": 45500.0, "potensi__m": 2.297423, "alamat_jal": "KEDUNGMLATEN", "alamat_des": "KEDUNG MLATEN", "alamat_kec": "LENGKONG", "alamat_kot": "NGANJUK", "alamat_pro": "Jawa Timur", "lat": null, "long": null, "jenis_tekn": "Biomass combustion", "objectid_1": 26, "latitude": -7.528685, "longitude": 112.096946 }, "geometry": { "type": "Point", "coordinates": [ 112.096946000000116, -7.528685 ] } },
{ "type": "Feature", "properties": { "nama_unit_": "PENGGILINGAN PADI \"AMAT SUTRISNO\"", "kapasitas_": 10003.0, "potensi__m": 0.838058, "alamat_jal": "DSN SUMBERJEJER RT 01/04", "alamat_des": "TANJUNGKENONGO", "alamat_kec": "PACET", "alamat_kot": "MOJOKERTO", "alamat_pro": "Jawa Timur", "lat": null, "long": null, "jenis_tekn": "Biomass combustion", "objectid_1": 27, "latitude": -7.610994, "longitude": 112.537853 }, "geometry": { "type": "Point", "coordinates": [ 112.537853, -7.610994 ] } },
{ "type": "Feature", "properties": { "nama_unit_": "PENGGILINGAN PADI \"SUDARNO\"", "kapasitas_": 30000.0, "potensi__m": 1.7953, "alamat_jal": "RT 04/01 DESA PARAKAN", "alamat_des": "PARAKAN", "alamat_kec": "TRENGGALEK", "alamat_kot": "TRENGGALEK", "alamat_pro": "Jawa Timur", "lat": null, "long": null, "jenis_tekn": "Biomass combustion", "objectid_1": 28, "latitude": -8.03445, "longitude": 111.735728 }, "geometry": { "type": "Point", "coordinates": [ 111.735728, -8.03445 ] } },
{ "type": "Feature", "properties": { "nama_unit_": "PENGGILINGAN PADI \"WASINI\"", "kapasitas_": 16000.0, "potensi__m": 1.196867, "alamat_jal": "RT 18/07 DS PARAKAN", "alamat_des": "PARAKAN", "alamat_kec": "TRENGGALEK", "alamat_kot": "TRENGGALEK", "alamat_pro": "Jawa Timur", "lat": null, "long": null, "jenis_tekn": "Biomass combustion", "objectid_1": 29, "latitude": -8.033553, "longitude": 111.740046 }, "geometry": { "type": "Point", "coordinates": [ 111.740046, -8.033553 ] } },
{ "type": "Feature", "properties": { "nama_unit_": "PENGGILINGAN PADI \"MUJI RAHAYU\"", "kapasitas_": 15000.0, "potensi__m": 1.122062, "alamat_jal": "RT 11/04 DS PARAKAN", "alamat_des": "PARAKAN", "alamat_kec": "TRENGGALEK", "alamat_kot": "TRENGGALEK", "alamat_pro": "Jawa Timur", "lat": null, "long": null, "jenis_tekn": "Biomass combustion", "objectid_1": 30, "latitude": -8.03251, "longitude": 111.738791 }, "geometry": { "type": "Point", "coordinates": [ 111.738791, -8.03251 ] } },
{ "type": "Feature", "properties": { "nama_unit_": "PENGGILINGAN PADI \"SUYONO\"", "kapasitas_": 56000.0, "potensi__m": 5.864646, "alamat_jal": "RT 04/01 DS PARAKAN", "alamat_des": "PARAKAN", "alamat_kec": "TRENGGALEK", "alamat_kot": "TRENGGALEK", "alamat_pro": "Jawa Timur", "lat": null, "long": null, "jenis_tekn": "Biomass combustion", "objectid_1": 31, "latitude": -8.025329, "longitude": 111.742059 }, "geometry": { "type": "Point", "coordinates": [ 111.742059, -8.025329 ] } },
{ "type": "Feature", "properties": { "nama_unit_": "PENGGILINGAN PADI \"KHOIRUDIN\"", "kapasitas_": 50000.0, "potensi__m": 2.244125, "alamat_jal": "RT 18/05 DS NGARES", "alamat_des": "NGARES", "alamat_kec": "TRENGGALEK", "alamat_kot": "TRENGGALEK", "alamat_pro": "Jawa Timur", "lat": null, "long": null, "jenis_tekn": "Biomass combustion", "objectid_1": 32, "latitude": -8.025354, "longitude": 111.698622 }, "geometry": { "type": "Point", "coordinates": [ 111.698622, -8.025354 ] } },
{ "type": "Feature", "properties": { "nama_unit_": "PENGGILINGAN PADI \"KARNO\"", "kapasitas_": 84000.0, "potensi__m": 1.759394, "alamat_jal": "DUSUN LORAN", "alamat_des": "BABADAN", "alamat_kec": "PANGKUR", "alamat_kot": "NGAWI", "alamat_pro": "Jawa Timur", "lat": null, "long": null, "jenis_tekn": "Biomass combustion", "objectid_1": 33, "latitude": -7.512213, "longitude": 111.573537 }, "geometry": { "type": "Point", "coordinates": [ 111.573537, -7.512213 ] } },
{ "type": "Feature", "properties": { "nama_unit_": "PENGGILINGAN PADI \"KARDIMAN\"", "kapasitas_": 84000.0, "potensi__m": 7.540259, "alamat_jal": "DUSUN TENGAHAN", "alamat_des": "BABADAN", "alamat_kec": "PANGKUR", "alamat_kot": "NGAWI", "alamat_pro": "Jawa Timur", "lat": null, "long": null, "jenis_tekn": "Biomass combustion", "objectid_1": 34, "latitude": -7.48938, "longitude": 111.51092 }, "geometry": { "type": "Point", "coordinates": [ 111.51092, -7.48938 ] } },
{ "type": "Feature", "properties": { "nama_unit_": "PENGGILINGAN PADI \"ANEKA TANI CV\"", "kapasitas_": 10000.0, "potensi__m": 0.89765, "alamat_jal": "NGUWOK", "alamat_des": "NGUWOK", "alamat_kec": "MODO", "alamat_kot": "LAMONGAN", "alamat_pro": "Jawa Timur", "lat": null, "long": null, "jenis_tekn": "Biomass combustion", "objectid_1": 35, "latitude": -7.239707, "longitude": 112.149524 }, "geometry": { "type": "Point", "coordinates": [ 112.149524, -7.239707 ] } },
{ "type": "Feature", "properties": { "nama_unit_": "PENGGILINGAN PADI \"AGUS SARTONO\"", "kapasitas_": 52500.0, "potensi__m": 4.712662, "alamat_jal": "DUSUN NGULUH RT.01 RW.04", "alamat_des": "POH KONYAL", "alamat_kec": "PANGKUR", "alamat_kot": "NGAWI", "alamat_pro": "Jawa Timur", "lat": null, "long": null, "jenis_tekn": "Biomass combustion", "objectid_1": 36, "latitude": -7.505938, "longitude": 111.566827 }, "geometry": { "type": "Point", "coordinates": [ 111.566827, -7.505938 ] } },
{ "type": "Feature", "properties": { "nama_unit_": "PENGGILINGAN PADI \"SUNARTO\"", "kapasitas_": 73500.0, "potensi__m": 6.597727, "alamat_jal": "DUSUN NGULUH", "alamat_des": "BABADAN", "alamat_kec": "PANGKUR", "alamat_kot": "NGAWI", "alamat_pro": "Jawa Timur", "lat": null, "long": null, "jenis_tekn": "Biomass combustion", "objectid_1": 37, "latitude": -7.505513, "longitude": 111.566548 }, "geometry": { "type": "Point", "coordinates": [ 111.566548, -7.505513 ] } },
{ "type": "Feature", "properties": { "nama_unit_": "PENGGILINGAN PADI \"MUHAEMIN\"", "kapasitas_": 750000.0, "potensi__m": 7.293406, "alamat_jal": "KP. CIPINING", "alamat_des": "KARANGNUNGGAL", "alamat_kec": "CIRINTEN", "alamat_kot": "LEBAK", "alamat_pro": "BANTEN", "lat": null, "long": null, "jenis_tekn": "Biomass combustion", "objectid_1": 38, "latitude": -6.392504, "longitude": 106.384309 }, "geometry": { "type": "Point", "coordinates": [ 106.384309, -6.392504 ] } },
{ "type": "Feature", "properties": { "nama_unit_": "PENGGILINGAN PADI \"UD BERKAT\"", "kapasitas_": 15000.0, "potensi__m": 1.166945, "alamat_jal": "KRAJAN RT 15 RW 03", "alamat_des": "PONCOGATI", "alamat_kec": "CURAH DAMI", "alamat_kot": "BONDOWOSO", "alamat_pro": "Jawa Timur", "lat": null, "long": null, "jenis_tekn": "Biomass combustion", "objectid_1": 39, "latitude": -7.909632, "longitude": 113.798687 }, "geometry": { "type": "Point", "coordinates": [ 113.798687, -7.909632 ] } },
{ "type": "Feature", "properties": { "nama_unit_": "PENGGILINGAN PADI \"UD TANPA NAMA\"", "kapasitas_": 15000.0, "potensi__m": 1.166945, "alamat_jal": "RT 09 RW 02", "alamat_des": "PONCOGATI", "alamat_kec": "CURAH DAMI", "alamat_kot": "BONDOWOSO", "alamat_pro": "Jawa Timur", "lat": null, "long": null, "jenis_tekn": "Biomass combustion", "objectid_1": 40, "latitude": -7.912124, "longitude": 113.798318 }, "geometry": { "type": "Point", "coordinates": [ 113.798318000000108, -7.912124 ] } },
{ "type": "Feature", "properties": { "nama_unit_": "PENGGILINGAN PADI \"IMAM NAWAWI\"", "kapasitas_": 25500.0, "potensi__m": 2.289007, "alamat_jal": "BENDIL PUTIH RT 02 RW 04", "alamat_des": "TUMPANG", "alamat_kec": "TALUN", "alamat_kot": "BLITAR", "alamat_pro": "Jawa Timur", "lat": null, "long": null, "jenis_tekn": "Biomass combustion", "objectid_1": 41, "latitude": -8.121886, "longitude": 112.251585 }, "geometry": { "type": "Point", "coordinates": [ 112.251585, -8.121886 ] } },
{ "type": "Feature", "properties": { "nama_unit_": "HULLER 'MUSLIH / UD HASIL MAPAN\"", "kapasitas_": 25000.0, "potensi__m": 3.085672, "alamat_jal": "DONDONG RT 7 RW 3", "alamat_des": "NGLARANGAN", "alamat_kec": "KANOR", "alamat_kot": "BOJONEGORO", "alamat_pro": "Jawa Timur", "lat": null, "long": null, "jenis_tekn": "Biomass combustion", "objectid_1": 42, "latitude": -7.154132, "longitude": 112.034058 }, "geometry": { "type": "Point", "coordinates": [ 112.034058, -7.154132 ] } },
{ "type": "Feature", "properties": { "nama_unit_": "PENGGILINGAN PADI\"LAM ILIE\"", "kapasitas_": 12000.0, "potensi__m": 0.848279, "alamat_jal": "LAM ILI MESJID", "alamat_des": "LAM ILIE MESJID", "alamat_kec": "INDRAPURI", "alamat_kot": "ACEH BESAR", "alamat_pro": "Aceh", "lat": null, "long": null, "jenis_tekn": "Biomass combustion", "objectid_1": 43, "latitude": 5.419473, "longitude": 95.434464 }, "geometry": { "type": "Point", "coordinates": [ 95.434464, 5.419473 ] } },
{ "type": "Feature", "properties": { "nama_unit_": "PENGGILINGAN PADI\"AMPERA\"", "kapasitas_": 36000.0, "potensi__m": 4.039425, "alamat_jal": "DESA SEUREUMO", "alamat_des": "SEUREMO", "alamat_kec": "INDRAPURI", "alamat_kot": "ACEH BESAR", "alamat_pro": "Aceh", "lat": null, "long": null, "jenis_tekn": "Biomass combustion", "objectid_1": 44, "latitude": 5.43515, "longitude": 95.428103 }, "geometry": { "type": "Point", "coordinates": [ 95.428103, 5.43515 ] } },
{ "type": "Feature", "properties": { "nama_unit_": "HULLER \"LANTIP\"", "kapasitas_": 21600.0, "potensi__m": 0.872516, "alamat_jal": "JARI", "alamat_des": "JARI", "alamat_kec": "GONDANG", "alamat_kot": "BOJONEGORO", "alamat_pro": "Jawa Timur", "lat": null, "long": null, "jenis_tekn": "Biomass combustion", "objectid_1": 45, "latitude": -7.410074, "longitude": 111.81312 }, "geometry": { "type": "Point", "coordinates": [ 111.81312, -7.410074 ] } },
{ "type": "Feature", "properties": { "nama_unit_": "PENGGILINGAN PADI\"BAHAGIA TANI\"", "kapasitas_": 22500.0, "potensi__m": 2.103867, "alamat_jal": "DESA JRUK BALEE", "alamat_des": "JRUEK BALEE", "alamat_kec": "INDRAPURI", "alamat_kot": "ACEH BESAR", "alamat_pro": "Aceh", "lat": null, "long": null, "jenis_tekn": "Biomass combustion", "objectid_1": 46, "latitude": 5.449431, "longitude": 95.420025 }, "geometry": { "type": "Point", "coordinates": [ 95.420025, 5.449431 ] } },
{ "type": "Feature", "properties": { "nama_unit_": "PENGGILINGAN PADI\"INDRA JAYA\"", "kapasitas_": 15000.0, "potensi__m": 1.07718, "alamat_jal": "L H E U", "alamat_des": "LHEUE", "alamat_kec": "INDRAPURI", "alamat_kot": "ACEH BESAR", "alamat_pro": "Aceh", "lat": null, "long": null, "jenis_tekn": "Biomass combustion", "objectid_1": 47, "latitude": 5.419741, "longitude": 95.454911 }, "geometry": { "type": "Point", "coordinates": [ 95.454911, 5.419741 ] } },
{ "type": "Feature", "properties": { "nama_unit_": "PENGGILINGAN PADI \"BAROKAH\"", "kapasitas_": 32000.0, "potensi__m": 1.43624, "alamat_jal": "KRAMAT RT 02/01", "alamat_des": "KRAMAT", "alamat_kec": "DEMPET", "alamat_kot": "DEMAK", "alamat_pro": "Jawa Tengah", "lat": null, "long": null, "jenis_tekn": "Biomass combustion", "objectid_1": 48, "latitude": -6.919751, "longitude": 110.73047 }, "geometry": { "type": "Point", "coordinates": [ 110.73047, -6.919751 ] } },
{ "type": "Feature", "properties": { "nama_unit_": "PENGGILINGAN PADI “ANUAR\"", "kapasitas_": 15000.0, "potensi__m": 1.009856, "alamat_jal": "JL P UTAR RT 011 SUNGAI UMBANG DESA S BAKAU", "alamat_des": "SUNGAI BAKAU", "alamat_kec": "KUMAI", "alamat_kot": "KOTAWARINGIN BARAT", "alamat_pro": "Kalimantan Tengah", "lat": null, "long": null, "jenis_tekn": "Biomass combustion", "objectid_1": 49, "latitude": -3.33759, "longitude": 112.6486 }, "geometry": { "type": "Point", "coordinates": [ 112.648600000000101, -3.33759 ] } },
{ "type": "Feature", "properties": { "nama_unit_": "PENGGILINGAN PADI \"H. ASIS\"", "kapasitas_": 36400.0, "potensi__m": 1.415893, "alamat_jal": "LINGK PADANGALLA", "alamat_des": "HASANUDDIN", "alamat_kec": "MANDAI", "alamat_kot": "MAROS", "alamat_pro": "Sulawesi Selatan", "lat": null, "long": null, "jenis_tekn": "Biomass combustion", "objectid_1": 50, "latitude": -5.061508, "longitude": 119.521521 }, "geometry": { "type": "Point", "coordinates": [ 119.521521, -5.061508 ] } },
{ "type": "Feature", "properties": { "nama_unit_": "PENGGILINGAN PADI \"H. RUDDING NUR\"", "kapasitas_": 58240.0, "potensi__m": 3.049616, "alamat_jal": "DSN BONTO RAMBA", "alamat_des": "BONTO MATENE", "alamat_kec": "MANDAI", "alamat_kot": "MAROS", "alamat_pro": "Sulawesi Selatan", "lat": null, "long": null, "jenis_tekn": "Biomass combustion", "objectid_1": 51, "latitude": -5.064839, "longitude": 119.572959 }, "geometry": { "type": "Point", "coordinates": [ 119.572959, -5.064839 ] } },
{ "type": "Feature", "properties": { "nama_unit_": "PENGGILINGAN PADI \"H. SAENI\"", "kapasitas_": 48000.0, "potensi__m": 1.723488, "alamat_jal": "DSN BORONGLOE", "alamat_des": "BONTO MATENE", "alamat_kec": "MANDAI", "alamat_kot": "MAROS", "alamat_pro": "Sulawesi Selatan", "lat": null, "long": null, "jenis_tekn": "Biomass combustion", "objectid_1": 52, "latitude": -5.062153, "longitude": 119.574351 }, "geometry": { "type": "Point", "coordinates": [ 119.574351, -5.062153 ] } },
{ "type": "Feature", "properties": { "nama_unit_": "PENGGILINGAN PADI \"H. CONRENG\"", "kapasitas_": 27750.0, "potensi__m": 0.778431, "alamat_jal": "DSN BONTO RAMBA", "alamat_des": "BONTO MATENE", "alamat_kec": "MANDAI", "alamat_kot": "MAROS", "alamat_pro": "Sulawesi Selatan", "lat": null, "long": null, "jenis_tekn": "Biomass combustion", "objectid_1": 53, "latitude": -5.06905, "longitude": 119.575501 }, "geometry": { "type": "Point", "coordinates": [ 119.575501, -5.06905 ] } },
{ "type": "Feature", "properties": { "nama_unit_": "PENGGILINGAN PADI \"H.NODDING\"", "kapasitas_": 15000.0, "potensi__m": 1.051934, "alamat_jal": "LINGKUNGAN ARESSIE (JL. POROS TOE) KELURAHAN MARAWI", "alamat_des": "MARAWI", "alamat_kec": "TIROANG", "alamat_kot": "PINRANG", "alamat_pro": "Sulawesi Selatan", "lat": null, "long": null, "jenis_tekn": "Biomass combustion", "objectid_1": 54, "latitude": -3.819836, "longitude": 119.72151 }, "geometry": { "type": "Point", "coordinates": [ 119.72151, -3.819836 ] } },
{ "type": "Feature", "properties": { "nama_unit_": "PENGGILINGAN PADI\" H.MASANG\"", "kapasitas_": 300500.0, "potensi__m": 20.605429, "alamat_jal": "LINGKUNGAN TONRONG SADDANG 2", "alamat_des": "TIROANG", "alamat_kec": "TIROANG", "alamat_kot": "PINRANG", "alamat_pro": "Sulawesi Selatan", "lat": null, "long": null, "jenis_tekn": "Biomass combustion", "objectid_1": 55, "latitude": -3.799809, "longitude": 119.68959 }, "geometry": { "type": "Point", "coordinates": [ 119.68959, -3.799809 ] } },
{ "type": "Feature", "properties": { "nama_unit_": "PENGGILINGAN PADI \"PROMOSI\"", "kapasitas_": 15061.0, "potensi__m": 0.867502, "alamat_jal": "LINGKUNGAN BULOE", "alamat_des": "DUA LIMPOE", "alamat_kec": "MANIANG PAJO", "alamat_kot": "WAJO", "alamat_pro": "Sulawesi Selatan", "lat": null, "long": null, "jenis_tekn": "Biomass combustion", "objectid_1": 56, "latitude": -3.975131, "longitude": 120.058101 }, "geometry": { "type": "Point", "coordinates": [ 120.058101, -3.975131 ] } },
{ "type": "Feature", "properties": { "nama_unit_": "PENGGILINGAN PADI \"MUH. SISWA DG LURANG\"", "kapasitas_": 560000.0, "potensi__m": 12.567099, "alamat_jal": "LINGK.SOMPU", "alamat_des": "SOMBALA BELLA", "alamat_kec": "PATTALLASSANG", "alamat_kot": "TAKALAR", "alamat_pro": "Sulawesi Selatan", "lat": null, "long": null, "jenis_tekn": "Biomass combustion", "objectid_1": 57, "latitude": -5.418311, "longitude": 119.432746 }, "geometry": { "type": "Point", "coordinates": [ 119.432746, -5.418311 ] } },
{ "type": "Feature", "properties": { "nama_unit_": "PENGGILINGAN PADI \"H JABBAR\"", "kapasitas_": 54600.0, "potensi__m": 2.6548, "alamat_jal": "DUSUN BENTENGE", "alamat_des": "BONTO MATENE", "alamat_kec": "MANDAI", "alamat_kot": "MAROS", "alamat_pro": "Sulawesi Selatan", "lat": null, "long": null, "jenis_tekn": "Biomass combustion", "objectid_1": 58, "latitude": -5.059432, "longitude": 119.576643 }, "geometry": { "type": "Point", "coordinates": [ 119.576643000000104, -5.059432 ] } },
{ "type": "Feature", "properties": { "nama_unit_": "PENGGILINGAN PADI \"ROWA\"", "kapasitas_": 49920.0, "potensi__m": 1.941796, "alamat_jal": "LINGK PADANGALLA", "alamat_des": "HASANUDDIN", "alamat_kec": "MANDAI", "alamat_kot": "MAROS", "alamat_pro": "Sulawesi Selatan", "lat": null, "long": null, "jenis_tekn": "Biomass combustion", "objectid_1": 59, "latitude": -5.044124, "longitude": 119.540963 }, "geometry": { "type": "Point", "coordinates": [ 119.540963, -5.044124 ] } },
{ "type": "Feature", "properties": { "nama_unit_": "PENGGILINGAN PADI \"SULTAN (SINAR BARU)\"", "kapasitas_": 18000.0, "potensi__m": 2.019712, "alamat_jal": "DUSUN MUHAJIRIN", "alamat_des": "BUANA SAKTI", "alamat_kec": "TOMMO", "alamat_kot": "MAMUJU", "alamat_pro": "Sulawesi Barat", "lat": null, "long": null, "jenis_tekn": "Biomass combustion", "objectid_1": 60, "latitude": -2.29346, "longitude": 119.266705 }, "geometry": { "type": "Point", "coordinates": [ 119.266705000000115, -2.29346 ] } },
{ "type": "Feature", "properties": { "nama_unit_": "INDUSTRI PENGGILINGAN PADI KOMARA", "kapasitas_": 22750.0, "potensi__m": 1.769866, "alamat_jal": "KP TINGGAR JAYA RT 02/ RW 01", "alamat_des": "CIMAUNG", "alamat_kec": "CIMAUNG", "alamat_kot": "BANDUNG", "alamat_pro": "Jawa Barat", "lat": null, "long": null, "jenis_tekn": "Biomass combustion", "objectid_1": 61, "latitude": -7.086275, "longitude": 107.561952 }, "geometry": { "type": "Point", "coordinates": [ 107.561952, -7.086275 ] } },
{ "type": "Feature", "properties": { "nama_unit_": "INDUSTRI PEMBUATAN PENGGILINGAN PADI NONO", "kapasitas_": 11643.0, "potensi__m": 0.853526, "alamat_jal": "KP TINGGAR JAYA GIRANG RT 02/ RW 02", "alamat_des": "CIMAUNG", "alamat_kec": "CIMAUNG", "alamat_kot": "BANDUNG", "alamat_pro": "Jawa Barat", "lat": null, "long": null, "jenis_tekn": "Biomass combustion", "objectid_1": 62, "latitude": -7.079545, "longitude": 107.553878 }, "geometry": { "type": "Point", "coordinates": [ 107.553878, -7.079545 ] } },
{ "type": "Feature", "properties": { "nama_unit_": "INDUSTRI PENGOLAHAN PENYOSOHAN BERAS DASEP", "kapasitas_": 10200.0, "potensi__m": 0.824043, "alamat_jal": "KP PEURIS HILIR RT 06/ RW 10", "alamat_des": "JAGABAYA", "alamat_kec": "CIMAUNG", "alamat_kot": "BANDUNG", "alamat_pro": "Jawa Barat", "lat": null, "long": null, "jenis_tekn": "Biomass combustion", "objectid_1": 63, "latitude": -6.947297, "longitude": 107.550213 }, "geometry": { "type": "Point", "coordinates": [ 107.550213, -6.947297 ] } },
{ "type": "Feature", "properties": { "nama_unit_": "INDUSTRI PENGOLAHAN PADI LILI", "kapasitas_": 11643.0, "potensi__m": 0.853526, "alamat_jal": "KP PASIR LANJUNG DESA JAGABAYA RT 03/ RW 02", "alamat_des": "JAGABAYA", "alamat_kec": "CIMAUNG", "alamat_kot": "BANDUNG", "alamat_pro": "Jawa Barat", "lat": null, "long": null, "jenis_tekn": "Biomass combustion", "objectid_1": 64, "latitude": -7.073724, "longitude": 107.570524 }, "geometry": { "type": "Point", "coordinates": [ 107.570524, -7.073724 ] } },
{ "type": "Feature", "properties": { "nama_unit_": "PENGGILINGAN PADI \" ARIF\"", "kapasitas_": 25000.0, "potensi__m": 1.570887, "alamat_jal": "BLOK PON RT 05 RW 03", "alamat_des": "PATAPAN", "alamat_kec": "BEBER", "alamat_kot": "CIREBON", "alamat_pro": "Jawa Barat", "lat": null, "long": null, "jenis_tekn": "Biomass combustion", "objectid_1": 65, "latitude": -6.791917, "longitude": 108.522003 }, "geometry": { "type": "Point", "coordinates": [ 108.522003, -6.791917 ] } },
{ "type": "Feature", "properties": { "nama_unit_": "PENGGILINGAN PADI \"SRI MURNI\"", "kapasitas_": 13325.0, "potensi__m": 1.036636, "alamat_jal": "SUKAMANDI", "alamat_des": "MEKARRAHARJA", "alamat_kec": "TALAGA", "alamat_kot": "MAJALENGKA", "alamat_pro": "Jawa Barat", "lat": null, "long": null, "jenis_tekn": "Biomass combustion", "objectid_1": 66, "latitude": -6.974894, "longitude": 108.289026 }, "geometry": { "type": "Point", "coordinates": [ 108.289026, -6.974894 ] } },
{ "type": "Feature", "properties": { "nama_unit_": "PENGGILINGAN PADI \"SRI MULYA\"", "kapasitas_": 16250.0, "potensi__m": 1.26419, "alamat_jal": "JL BANTARUJEG", "alamat_des": "MEKARRAHARJA", "alamat_kec": "TALAGA", "alamat_kot": "MAJALENGKA", "alamat_pro": "Jawa Barat", "lat": null, "long": null, "jenis_tekn": "Biomass combustion", "objectid_1": 67, "latitude": -6.977623, "longitude": 108.2939 }, "geometry": { "type": "Point", "coordinates": [ 108.2939, -6.977623 ] } },
{ "type": "Feature", "properties": { "nama_unit_": "HULLER GABAH  \"PB BAROKAH\"", "kapasitas_": 8000.0, "potensi__m": 0.754026, "alamat_jal": "DSN. CIHIDEUNG RT 03 RW 01", "alamat_des": "CIGANJENG", "alamat_kec": "PADAHERANG", "alamat_kot": "CIAMIS", "alamat_pro": "Jawa Barat", "lat": null, "long": null, "jenis_tekn": "Biomass combustion", "objectid_1": 68, "latitude": -7.582861, "longitude": 108.728723 }, "geometry": { "type": "Point", "coordinates": [ 108.728723, -7.582861 ] } },
{ "type": "Feature", "properties": { "nama_unit_": "PENGGILINGAN PADI \"ASIH\"", "kapasitas_": 14625.0, "potensi__m": 1.094011, "alamat_jal": "JL. GOPALA BLOK KUBURAN RT. 03/01", "alamat_des": "KEDOKANBUNDER WETAN", "alamat_kec": "KEDOKAN BUNDER", "alamat_kot": "INDRAMAYU", "alamat_pro": "Jawa Barat", "lat": null, "long": null, "jenis_tekn": "Biomass combustion", "objectid_1": 69, "latitude": -6.482248, "longitude": 108.414445 }, "geometry": { "type": "Point", "coordinates": [ 108.414445, -6.482248 ] } },
{ "type": "Feature", "properties": { "nama_unit_": "HULLER \"SRI UTAMI\"", "kapasitas_": 150002.0, "potensi__m": 7.854542, "alamat_jal": "DUSUN CIMAHI II RT 19/04", "alamat_des": "SIDAMULYA", "alamat_kec": "CIPUNAGARA", "alamat_kot": "SUBANG", "alamat_pro": "Jawa Barat", "lat": null, "long": null, "jenis_tekn": "Biomass combustion", "objectid_1": 70, "latitude": -6.513677, "longitude": 107.881584 }, "geometry": { "type": "Point", "coordinates": [ 107.881584, -6.513677 ] } },
{ "type": "Feature", "properties": { "nama_unit_": "INDO BERAS UNGGUL PT", "kapasitas_": 169139.0, "potensi__m": 10.627933, "alamat_jal": "JL RAYA RENGAS BANDUNG KM 60", "alamat_des": "KARANGSAMBUNG", "alamat_kec": "KEDUNGWARINGIN", "alamat_kot": "BEKASI", "alamat_pro": "Jawa Barat", "lat": null, "long": null, "jenis_tekn": "Biomass combustion", "objectid_1": 71, "latitude": -6.265001, "longitude": 107.216222 }, "geometry": { "type": "Point", "coordinates": [ 107.216222, -6.265001 ] } },
{ "type": "Feature", "properties": { "nama_unit_": "PENGGILINGAN PADI \"PB SRI MULYA DASUKI\"", "kapasitas_": 8000.0, "potensi__m": 0.71812, "alamat_jal": "DUSUN DOGER RT 12/05", "alamat_des": "CILANDAK", "alamat_kec": "ANJATAN", "alamat_kot": "INDRAMAYU", "alamat_pro": "Jawa Barat", "lat": null, "long": null, "jenis_tekn": "Biomass combustion", "objectid_1": 72, "latitude": -6.407313, "longitude": 108.020146 }, "geometry": { "type": "Point", "coordinates": [ 108.020146, -6.407313 ] } },
{ "type": "Feature", "properties": { "nama_unit_": "HULLER \"HULLER CV. 1001\"", "kapasitas_": 9000.0, "potensi__m": 0.700167, "alamat_jal": "KP. CICAU", "alamat_des": "SAMARANG", "alamat_kec": "SAMARANG", "alamat_kot": "GARUT", "alamat_pro": "Jawa Barat", "lat": null, "long": null, "jenis_tekn": "Biomass combustion", "objectid_1": 73, "latitude": -7.219975, "longitude": 107.835424 }, "geometry": { "type": "Point", "coordinates": [ 107.835424, -7.219975 ] } },
{ "type": "Feature", "properties": { "nama_unit_": "PENGGILINGAN PADI \"PB SAHABAT TANI\"", "kapasitas_": 120000.0, "potensi__m": 7.854437, "alamat_jal": "KP. KANDANG RT 005/006", "alamat_des": "SUKARAYA", "alamat_kec": "KARANGBAHAGIA", "alamat_kot": "BEKASI", "alamat_pro": "Jawa Barat", "lat": null, "long": null, "jenis_tekn": "Biomass combustion", "objectid_1": 74, "latitude": -6.170501, "longitude": 107.198635 }, "geometry": { "type": "Point", "coordinates": [ 107.198635, -6.170501 ] } },
{ "type": "Feature", "properties": { "nama_unit_": "PENGGILINGAN PADI \"H RIDWAN\"", "kapasitas_": 20000.0, "potensi__m": 1.555927, "alamat_jal": "KP.WARUNGNENGGANG RT.02/01", "alamat_des": "SUKAMANAH", "alamat_kec": "MANDE", "alamat_kot": "CIANJUR", "alamat_pro": "Jawa Barat", "lat": null, "long": null, "jenis_tekn": "Biomass combustion", "objectid_1": 75, "latitude": -6.756359, "longitude": 107.173317 }, "geometry": { "type": "Point", "coordinates": [ 107.173317, -6.756359 ] } },
{ "type": "Feature", "properties": { "nama_unit_": "PENGGILINGAN PADI \"OBAR\"", "kapasitas_": 14400.0, "potensi__m": 0.710939, "alamat_jal": "KP. TARI KOLOT RT.06/04", "alamat_des": "SUKASARI", "alamat_kec": "KARANGTENGAH", "alamat_kot": "CIANJUR", "alamat_pro": "Jawa Barat", "lat": null, "long": null, "jenis_tekn": "Biomass combustion", "objectid_1": 76, "latitude": -6.822776, "longitude": 107.192762 }, "geometry": { "type": "Point", "coordinates": [ 107.192762, -6.822776 ] } },
{ "type": "Feature", "properties": { "nama_unit_": "JATISARI SRI REJEKI PT", "kapasitas_": 20000.0, "potensi__m": 1.25671, "alamat_jal": "JL. RAYA JAKARTA - CIREBON KM 104", "alamat_des": "JATISARI", "alamat_kec": "JATISARI", "alamat_kot": "KARAWANG", "alamat_pro": "Jawa Barat", "lat": null, "long": null, "jenis_tekn": "Biomass combustion", "objectid_1": 77, "latitude": -6.364677, "longitude": 107.524743 }, "geometry": { "type": "Point", "coordinates": [ 107.524743, -6.364677 ] } },
{ "type": "Feature", "properties": { "nama_unit_": "HULLER \"KUSMANA\"", "kapasitas_": 29365.0, "potensi__m": 1.383873, "alamat_jal": "CIBAYAWAK RT 01/01", "alamat_des": "SIDAMULIH", "alamat_kec": "PAMARICAN", "alamat_kot": "CIAMIS", "alamat_pro": "Jawa Barat", "lat": null, "long": null, "jenis_tekn": "Biomass combustion", "objectid_1": 78, "latitude": -7.484974, "longitude": 108.479718 }, "geometry": { "type": "Point", "coordinates": [ 108.479718, -7.484974 ] } },
{ "type": "Feature", "properties": { "nama_unit_": "PENGGILINGAN GABAH \"SINAR JAYA\"", "kapasitas_": 20000.0, "potensi__m": 1.555927, "alamat_jal": "KP.CIMARIUK RT 01/RW 18", "alamat_des": "MANGGUNGHARJA", "alamat_kec": "CIPARAY", "alamat_kot": "BANDUNG", "alamat_pro": "Jawa Barat", "lat": null, "long": null, "jenis_tekn": "Biomass combustion", "objectid_1": 79, "latitude": -7.041459, "longitude": 107.720314 }, "geometry": { "type": "Point", "coordinates": [ 107.720314, -7.041459 ] } },
{ "type": "Feature", "properties": { "nama_unit_": "PENGGILINGAN PADI \"IWA\"", "kapasitas_": 9666.0, "potensi__m": 0.943589, "alamat_jal": "KP. CIGALUMPIT RT 02 RW 07", "alamat_des": "GAJAHMEKAR", "alamat_kec": "KUTAWARINGIN", "alamat_kot": "BANDUNG", "alamat_pro": "Jawa Barat", "lat": null, "long": null, "jenis_tekn": "Biomass combustion", "objectid_1": 80, "latitude": -6.978154, "longitude": 107.535241 }, "geometry": { "type": "Point", "coordinates": [ 107.535241, -6.978154 ] } },
{ "type": "Feature", "properties": { "nama_unit_": "PENGGILINGAN PADI \"H.MAYA\"", "kapasitas_": 18125.0, "potensi__m": 1.572757, "alamat_jal": "KP. CISARANTA RT 03 RW 01", "alamat_des": "KOPO", "alamat_kec": "KUTAWARINGIN", "alamat_kot": "BANDUNG", "alamat_pro": "Jawa Barat", "lat": null, "long": null, "jenis_tekn": "Biomass combustion", "objectid_1": 81, "latitude": -7.008496, "longitude": 107.526125 }, "geometry": { "type": "Point", "coordinates": [ 107.526125, -7.008496 ] } },
{ "type": "Feature", "properties": { "nama_unit_": "PENGGILINGAN PADI \"UD BAROKAH-SITI MARWIYAH\"", "kapasitas_": 12712.0, "potensi__m": 0.832047, "alamat_jal": "MOJOLEGI, MOJOLEGI RT 01/01", "alamat_des": "MOJOLEGI", "alamat_kec": "TERAS", "alamat_kot": "BOYOLALI", "alamat_pro": "Jawa Tengah", "lat": null, "long": null, "jenis_tekn": "Biomass combustion", "objectid_1": 82, "latitude": -7.52898, "longitude": 110.633249 }, "geometry": { "type": "Point", "coordinates": [ 110.633249, -7.52898 ] } },
{ "type": "Feature", "properties": { "nama_unit_": "PENGGILINGAN PADI \"SAIFUDIN\"", "kapasitas_": 11655.0, "potensi__m": 0.871842, "alamat_jal": "POS RT 01/03", "alamat_des": "DLIMOYO", "alamat_kec": "NGADIREJO", "alamat_kot": "TEMANGGUNG", "alamat_pro": "Jawa Tengah", "lat": null, "long": null, "jenis_tekn": "Biomass combustion", "objectid_1": 83, "latitude": -7.244416, "longitude": 110.040256 }, "geometry": { "type": "Point", "coordinates": [ 110.040256, -7.244416 ] } },
{ "type": "Feature", "properties": { "nama_unit_": "PENGGILINGAN PADI  \" H. BARORI\"", "kapasitas_": 135575.0, "potensi__m": 4.462293, "alamat_jal": "SIDOREJO RT 02/01", "alamat_des": "SIDOREJO", "alamat_kec": "TIRTO", "alamat_kot": "PEKALONGAN", "alamat_pro": "Jawa Tengah", "lat": null, "long": null, "jenis_tekn": "Biomass combustion", "objectid_1": 84, "latitude": -6.919552, "longitude": 109.633585 }, "geometry": { "type": "Point", "coordinates": [ 109.633585, -6.919552 ] } },
{ "type": "Feature", "properties": { "nama_unit_": "PENGGILINGAN PADI \"TAN ING JIE\"", "kapasitas_": 18750.0, "potensi__m": 1.346475, "alamat_jal": "RT 3/2 BANDENGAN, SIDAHARJA", "alamat_des": "SIDOHARJO", "alamat_kec": "SURADADI", "alamat_kot": "TEGAL", "alamat_pro": "Jawa Tengah", "lat": null, "long": null, "jenis_tekn": "Biomass combustion", "objectid_1": 85, "latitude": -6.872529, "longitude": 109.12354 }, "geometry": { "type": "Point", "coordinates": [ 109.12354, -6.872529 ] } },
{ "type": "Feature", "properties": { "nama_unit_": "PENGGILINGAN PADI \"REJO SARI\"", "kapasitas_": 13500.0, "potensi__m": 0.807885, "alamat_jal": "JL RAYA SOLO-SRAGEN KM15", "alamat_des": "KARANG MALANG", "alamat_kec": "MASARAN", "alamat_kot": "SRAGEN", "alamat_pro": "Jawa Tengah", "lat": null, "long": null, "jenis_tekn": "Biomass combustion", "objectid_1": 86, "latitude": -7.480987, "longitude": 110.923776 }, "geometry": { "type": "Point", "coordinates": [ 110.923776, -7.480987 ] } },
{ "type": "Feature", "properties": { "nama_unit_": "PENGGILINGAN PADI \"SUMBER BULU\"", "kapasitas_": 11000.0, "potensi__m": 0.85576, "alamat_jal": "DESA MENYARIK", "alamat_des": "MENYARIK", "alamat_kec": "WINONGAN", "alamat_kot": "PASURUAN", "alamat_pro": "Jawa Timur", "lat": null, "long": null, "jenis_tekn": "Biomass combustion", "objectid_1": 87, "latitude": -7.742094, "longitude": 112.931862 }, "geometry": { "type": "Point", "coordinates": [ 112.931862, -7.742094 ] } },
{ "type": "Feature", "properties": { "nama_unit_": "PENGGILINGAN PADI \"SAMPURNO\"", "kapasitas_": 13000.0, "potensi__m": 1.011352, "alamat_jal": "DESA MANDALAN", "alamat_des": "MENDALAN", "alamat_kec": "WINONGAN", "alamat_kot": "PASURUAN", "alamat_pro": "Jawa Timur", "lat": null, "long": null, "jenis_tekn": "Biomass combustion", "objectid_1": 88, "latitude": -7.720306, "longitude": 112.941588 }, "geometry": { "type": "Point", "coordinates": [ 112.941588, -7.720306 ] } },
{ "type": "Feature", "properties": { "nama_unit_": "PENGGILINGAN PADI \"NGADIMIN\"", "kapasitas_": 84000.0, "potensi__m": 7.540259, "alamat_jal": "DUSUN NGGERUNG", "alamat_des": "BABADAN", "alamat_kec": "PANGKUR", "alamat_kot": "NGAWI", "alamat_pro": "Jawa Timur", "lat": null, "long": null, "jenis_tekn": "Biomass combustion", "objectid_1": 89, "latitude": -7.512165, "longitude": 111.573658 }, "geometry": { "type": "Point", "coordinates": [ 111.573658, -7.512165 ] } },
{ "type": "Feature", "properties": { "nama_unit_": "PENGGILINGAN PADI \"HANDOYO\"", "kapasitas_": 52500.0, "potensi__m": 4.712662, "alamat_jal": "DUSUN LORAN", "alamat_des": "BABADAN", "alamat_kec": "PANGKUR", "alamat_kot": "NGAWI", "alamat_pro": "Jawa Timur", "lat": null, "long": null, "jenis_tekn": "Biomass combustion", "objectid_1": 90, "latitude": -7.515567, "longitude": 111.584145 }, "geometry": { "type": "Point", "coordinates": [ 111.584145, -7.515567 ] } },
{ "type": "Feature", "properties": { "nama_unit_": "PENGGILINGAN PADI \"JAIMAN\"", "kapasitas_": 52500.0, "potensi__m": 4.712662, "alamat_jal": "DUSUN TENGAHAN", "alamat_des": "BABADAN", "alamat_kec": "PANGKUR", "alamat_kot": "NGAWI", "alamat_pro": "Jawa Timur", "lat": null, "long": null, "jenis_tekn": "Biomass combustion", "objectid_1": 91, "latitude": -7.488439, "longitude": 111.515427 }, "geometry": { "type": "Point", "coordinates": [ 111.515427, -7.488439 ] } },
{ "type": "Feature", "properties": { "nama_unit_": "PENGGILINGAN PADI \"SUYANTO\"", "kapasitas_": 10500.0, "potensi__m": 0.942532, "alamat_jal": "DUSUN NGULUH RT.01 RW.04", "alamat_des": "POH KONYAL", "alamat_kec": "PANGKUR", "alamat_kot": "NGAWI", "alamat_pro": "Jawa Timur", "lat": null, "long": null, "jenis_tekn": "Biomass combustion", "objectid_1": 92, "latitude": -7.506003, "longitude": 111.567704 }, "geometry": { "type": "Point", "coordinates": [ 111.567704, -7.506003 ] } },
{ "type": "Feature", "properties": { "nama_unit_": "PENGGILINGAN PADI \"ANUGRAH\"", "kapasitas_": 27000.0, "potensi__m": 3.029568, "alamat_jal": "KUTA LANG LANG BARU", "alamat_des": "KUTA LANG LANG BARU", "alamat_kec": "BAMBEL", "alamat_kot": "ACEH TENGGARA", "alamat_pro": "Aceh", "lat": null, "long": null, "jenis_tekn": "Biomass combustion", "objectid_1": 93, "latitude": 3.448242, "longitude": 97.849581 }, "geometry": { "type": "Point", "coordinates": [ 97.849581, 3.448242 ] } },
{ "type": "Feature", "properties": { "nama_unit_": "PENGGILINGAN PADI \"SAPEU PAKAT\"", "kapasitas_": 12500.0, "potensi__m": 1.122062, "alamat_jal": "DESA DATA MAKMUR", "alamat_des": "DATA MAKMUR", "alamat_kec": "BLANG BINTANG", "alamat_kot": "ACEH BESAR", "alamat_pro": "Aceh", "lat": null, "long": null, "jenis_tekn": "Biomass combustion", "objectid_1": 94, "latitude": 5.500333, "longitude": 95.441848 }, "geometry": { "type": "Point", "coordinates": [ 95.441848, 5.500333 ] } },
{ "type": "Feature", "properties": { "nama_unit_": "PENGGILINGAN PADI \"DEDI\"", "kapasitas_": 12500.0, "potensi__m": 0.935052, "alamat_jal": "REULEUNG KARIENG", "alamat_des": "REULEUNG KARIENG", "alamat_kec": "KUTA MALAKA", "alamat_kot": "ACEH BESAR", "alamat_pro": "Aceh", "lat": null, "long": null, "jenis_tekn": "Biomass combustion", "objectid_1": 95, "latitude": 5.453168, "longitude": 95.395875 }, "geometry": { "type": "Point", "coordinates": [ 95.395875, 5.453168 ] } },
{ "type": "Feature", "properties": { "nama_unit_": "PENGGILINGAN PADI\"KUTA GUNONG\"", "kapasitas_": 18000.0, "potensi__m": 2.275543, "alamat_jal": "ULEE UE", "alamat_des": "ULEE UE", "alamat_kec": "INDRAPURI", "alamat_kot": "ACEH BESAR", "alamat_pro": "Aceh", "lat": null, "long": null, "jenis_tekn": "Biomass combustion", "objectid_1": 96, "latitude": 5.446425, "longitude": 95.410624 }, "geometry": { "type": "Point", "coordinates": [ 95.410624, 5.446425 ] } },
{ "type": "Feature", "properties": { "nama_unit_": "HULLER \"SINAR JAYA\"", "kapasitas_": 15125.0, "potensi__m": 1.086156, "alamat_jal": "DUSUN 3", "alamat_des": "SUKARAJA", "alamat_kec": "AIR PUTIH", "alamat_kot": "BATU BARA", "alamat_pro": "Sumatera Utara", "lat": null, "long": null, "jenis_tekn": "Biomass combustion", "objectid_1": 97, "latitude": 3.264805, "longitude": 99.381272 }, "geometry": { "type": "Point", "coordinates": [ 99.381272, 3.264805 ] } },
{ "type": "Feature", "properties": { "nama_unit_": "PENGGILINGAN PADI \"SINAR JAYA\"", "kapasitas_": 15000.0, "potensi__m": 0.807885, "alamat_jal": "JALAN LINTAS SUMATERA", "alamat_des": "DAMULI PEKAN", "alamat_kec": "KUALUH SELATAN", "alamat_kot": "LABUHAN BATU UTARA", "alamat_pro": "Sumatera Utara", "lat": null, "long": null, "jenis_tekn": "Biomass combustion", "objectid_1": 98, "latitude": 2.9266, "longitude": 99.698595 }, "geometry": { "type": "Point", "coordinates": [ 99.698595, 2.9266 ] } },
{ "type": "Feature", "properties": { "nama_unit_": "PENGGILINGAN PADI \"TEHENG\"", "kapasitas_": 7692.0, "potensi__m": 0.748012, "alamat_jal": "JL. LAKSANA DUSUN III DESA BINTANG MERIAH", "alamat_des": "BINTANG MERIAH", "alamat_kec": "BATANG KUIS", "alamat_kot": "DELI SERDANG", "alamat_pro": "Sumatera Utara", "lat": null, "long": null, "jenis_tekn": "Biomass combustion", "objectid_1": 99, "latitude": 3.615713, "longitude": 98.793046 }, "geometry": { "type": "Point", "coordinates": [ 98.793046, 3.615713 ] } },
{ "type": "Feature", "properties": { "nama_unit_": "PENGGILINGAN PADI \"APAN\"", "kapasitas_": 20000.0, "potensi__m": 1.166945, "alamat_jal": "KAMPUNG MELAYU", "alamat_des": "NAGARI MALAMPAH", "alamat_kec": "TIGO NAGARI", "alamat_kot": "PASAMAN", "alamat_pro": "Sumatera Barat", "lat": null, "long": null, "jenis_tekn": "Biomass combustion", "objectid_1": 100, "latitude": 0.02813, "longitude": 100.07671 }, "geometry": { "type": "Point", "coordinates": [ 100.07671, 0.02813 ] } },
{ "type": "Feature", "properties": { "nama_unit_": "HULLER \"RMU DALIMA\"", "kapasitas_": 12000.0, "potensi__m": 0.785444, "alamat_jal": "JORONG PADANG HARAPAN", "alamat_des": "MUNGKA", "alamat_kec": "MUNGKA", "alamat_kot": "LIMA PULUH KOTA", "alamat_pro": "Sumatera Barat", "lat": null, "long": null, "jenis_tekn": "Biomass combustion", "objectid_1": 101, "latitude": -0.129762, "longitude": 100.555296 }, "geometry": { "type": "Point", "coordinates": [ 100.555296, -0.129762 ] } },
{ "type": "Feature", "properties": { "nama_unit_": "BUMI LAKSAMANA JAYA PT - RICE PROCESSING COMPLEX (RPC)", "kapasitas_": 18400.0, "potensi__m": 1.376397, "alamat_jal": "JL. RPL SEPOTONG", "alamat_des": "SEPOTONG", "alamat_kec": "SIAK KECIL", "alamat_kot": "BENGKALIS", "alamat_pro": "Riau", "lat": null, "long": null, "jenis_tekn": "Biomass combustion", "objectid_1": 102, "latitude": 1.163987, "longitude": 102.099957 }, "geometry": { "type": "Point", "coordinates": [ 102.099957, 1.163987 ] } },
{ "type": "Feature", "properties": { "nama_unit_": "PENGGILINGAN PADI \"C.V PRIMA JAYA\"", "kapasitas_": 17647.0, "potensi__m": 1.372872, "alamat_jal": "DUSUN 3 RT 1", "alamat_des": "CIPTA MUDA", "alamat_kec": "BUAY MADANG", "alamat_kot": "OGAN KOMERING ULU TIMUR", "alamat_pro": "Sumatera Selatan", "lat": null, "long": null, "jenis_tekn": "Biomass combustion", "objectid_1": 103, "latitude": -4.227485, "longitude": 104.481524 }, "geometry": { "type": "Point", "coordinates": [ 104.481524, -4.227485 ] } },
{ "type": "Feature", "properties": { "nama_unit_": "PENGGILINGAN PADI \"MAKMUR\"", "kapasitas_": 14285.0, "potensi__m": 0.972405, "alamat_jal": "DUSUN BAGELEN 3 RT 04", "alamat_des": "BAGELEN", "alamat_kec": "GEDUNG TATAAN", "alamat_kot": "PESAWARAN", "alamat_pro": "Lampung", "lat": null, "long": null, "jenis_tekn": "Biomass combustion", "objectid_1": 104, "latitude": -5.368317, "longitude": 105.104538 }, "geometry": { "type": "Point", "coordinates": [ 105.104538, -5.368317 ] } },
{ "type": "Feature", "properties": { "nama_unit_": "HULLER GABAH \"KUSNOTO\"", "kapasitas_": 23000.0, "potensi__m": 0.774223, "alamat_jal": "RT 02 RB 3", "alamat_des": "REJO BASUKI", "alamat_kec": "SEPUTIH RAMAN", "alamat_kot": "Lampung Tengah", "alamat_pro": "Lampung", "lat": null, "long": null, "jenis_tekn": "Biomass combustion", "objectid_1": 105, "latitude": -4.943858, "longitude": 105.327769 }, "geometry": { "type": "Point", "coordinates": [ 105.327769, -4.943858 ] } }
]
}
