{
"type": "FeatureCollection",
"name": "potensi_limbah_industri_tapioka",
"crs": { "type": "name", "properties": { "name": "urn:ogc:def:crs:OGC:1.3:CRS84" } },
"features": [
{ "type": "Feature", "properties": { "nama_unit_": " ", "perusahaan": "PT Incasi Raya", "potensi__m": 0.971833, "kapasitas_": 80.0, "jenis_tekn": "Biogas", "jenis_limb": "Wastewater", "alamat_jal": "Jl Diponegoro No 7", "alamat_des": "Belakang Tangsi", "alamat_kec": "Padang Barat", "alamat_kot": "Padang", "alamat_pro": "Sumatera Barat", "lat": null, "objectid_1": 1, "latitude": -0.952585, "longitude": 100.355165 }, "geometry": { "type": "Point", "coordinates": [ 100.355165, -0.952585 ] } },
{ "type": "Feature", "properties": { "nama_unit_": " ", "perusahaan": "PT Bumi Lampung Permai", "potensi__m": 0.971833, "kapasitas_": 80.0, "jenis_tekn": "Biogas", "jenis_limb": "Wastewater", "alamat_jal": "Jl. Teluk Betung 43", "alamat_des": "Way Lunik", "alamat_kec": "Teluk Betung Selatan", "alamat_kot": "Lampung Tengah", "alamat_pro": "Lampung", "lat": null, "objectid_1": 2, "latitude": -5.447761, "longitude": 105.309655 }, "geometry": { "type": "Point", "coordinates": [ 105.309655, -5.447761 ] } },
{ "type": "Feature", "properties": { "nama_unit_": " ", "perusahaan": "PT Wira Kencana Karya Perdana", "potensi__m": 3.036979, "kapasitas_": 250.0, "jenis_tekn": "Biogas", "jenis_limb": "Wastewater", "alamat_jal": " Jl. Laks. Malahayati Blok B No 121 A-B", "alamat_des": "Kedaton", "alamat_kec": "Sukadana", "alamat_kot": "Lampung Tengah", "alamat_pro": "Lampung", "lat": null, "objectid_1": 3, "latitude": -5.448182, "longitude": 105.264823 }, "geometry": { "type": "Point", "coordinates": [ 105.264823, -5.448182 ] } },
{ "type": "Feature", "properties": { "nama_unit_": " ", "perusahaan": "PT Sepakat Siantar", "potensi__m": 3.644375, "kapasitas_": 300.0, "jenis_tekn": "Biogas", "jenis_limb": "Wastewater", "alamat_jal": "Jl Raya Jurusan Palembang-Jambi Km 78", "alamat_des": "Sungai Lilin", "alamat_kec": " Musi", "alamat_kot": "Banyuasin", "alamat_pro": "Sumatera Selatan", "lat": null, "objectid_1": 4, "latitude": -2.650284, "longitude": 104.088347 }, "geometry": { "type": "Point", "coordinates": [ 104.088347, -2.650284 ] } },
{ "type": "Feature", "properties": { "nama_unit_": " ", "perusahaan": "PT Toili Indotama", "potensi__m": 1.214792, "kapasitas_": 100.0, "jenis_tekn": "Biogas", "jenis_limb": "Wastewater", "alamat_jal": " Jl. Martadinata 22", "alamat_des": " ", "alamat_kec": " ", "alamat_kot": "Luwuk", "alamat_pro": "Sulawesi Tengah", "lat": null, "objectid_1": 5, "latitude": -0.938246, "longitude": 122.795703 }, "geometry": { "type": "Point", "coordinates": [ 122.795703000000117, -0.938246 ] } },
{ "type": "Feature", "properties": { "nama_unit_": " ", "perusahaan": "PT Perkebunan Nusantara XIV", "potensi__m": 0.570952, "kapasitas_": 47.0, "jenis_tekn": "Biogas", "jenis_limb": "Wastewater", "alamat_jal": "Jl. Urip Sumoharjo Km. 4", "alamat_des": " ", "alamat_kec": " ", "alamat_kot": "Ujung Pandang", "alamat_pro": "Sulawesi Tenggara", "lat": null, "objectid_1": 6, "latitude": -5.135561, "longitude": 119.468535 }, "geometry": { "type": "Point", "coordinates": [ 119.468535, -5.135561 ] } },
{ "type": "Feature", "properties": { "nama_unit_": " ", "perusahaan": "ACI MENARA, CV", "potensi__m": 1.214792, "kapasitas_": 100.0, "jenis_tekn": "Biogas", "jenis_limb": "Wastewater", "alamat_jal": "Rt. 04/01", "alamat_des": "Ds. Purwanegoro", "alamat_kec": " ", "alamat_kot": "Banjarnegara", "alamat_pro": "Jawa Tengah", "lat": null, "objectid_1": 7, "latitude": -7.435751, "longitude": 109.55965 }, "geometry": { "type": "Point", "coordinates": [ 109.55965, -7.435751 ] } },
{ "type": "Feature", "properties": { "nama_unit_": " ", "perusahaan": "PT. Budi Starch & Sweetener Tbk.", "potensi__m": 2.429583, "kapasitas_": 200.0, "jenis_tekn": "Biogas", "jenis_limb": "Wastewater", "alamat_jal": " ", "alamat_des": "Ds Labuhan Ratu", "alamat_kec": " ", "alamat_kot": "Lampung Timur", "alamat_pro": "Lampung", "lat": null, "objectid_1": 8, "latitude": -5.11275, "longitude": 105.6675 }, "geometry": { "type": "Point", "coordinates": [ 105.6675, -5.11275 ] } },
{ "type": "Feature", "properties": { "nama_unit_": " ", "perusahaan": "PT. Budi Starch & Sweetener Tbk.", "potensi__m": 2.429583, "kapasitas_": 200.0, "jenis_tekn": "Biogas", "jenis_limb": "Wastewater", "alamat_jal": " ", "alamat_des": "Desa Terbanggi Besar", "alamat_kec": " ", "alamat_kot": "Lampung Tengah", "alamat_pro": "Lampung", "lat": null, "objectid_1": 9, "latitude": -4.872472, "longitude": 105.177333 }, "geometry": { "type": "Point", "coordinates": [ 105.177333, -4.872472 ] } },
{ "type": "Feature", "properties": { "nama_unit_": " ", "perusahaan": "PT. Budi Starch & Sweetener Tbk.", "potensi__m": 5.466562, "kapasitas_": 450.0, "jenis_tekn": "Biogas", "jenis_limb": "Wastewater", "alamat_jal": " ", "alamat_des": "Desa Gunung Batin Udik", "alamat_kec": " ", "alamat_kot": "Lampung Tengah", "alamat_pro": "Lampung", "lat": null, "objectid_1": 10, "latitude": -4.634583, "longitude": 105.184722 }, "geometry": { "type": "Point", "coordinates": [ 105.184722, -4.634583 ] } },
{ "type": "Feature", "properties": { "nama_unit_": " ", "perusahaan": "PT. Budi Starch & Sweetener Tbk.", "potensi__m": 1.214792, "kapasitas_": 100.0, "jenis_tekn": "Biogas", "jenis_limb": "Wastewater", "alamat_jal": " ", "alamat_des": "Desa Buyut Ilir", "alamat_kec": " ", "alamat_kot": "Lampung Tengah", "alamat_pro": "Lampung", "lat": null, "objectid_1": 11, "latitude": -4.966111, "longitude": 105.2925 }, "geometry": { "type": "Point", "coordinates": [ 105.2925, -4.966111 ] } },
{ "type": "Feature", "properties": { "nama_unit_": " ", "perusahaan": "PT. Budi Starch & Sweetener Tbk.", "potensi__m": 2.429583, "kapasitas_": 200.0, "jenis_tekn": "Biogas", "jenis_limb": "Wastewater", "alamat_jal": " ", "alamat_des": "Desa Gunung Agung Km 87", "alamat_kec": " ", "alamat_kot": "Lampung Tengah", "alamat_pro": "Lampung", "lat": null, "objectid_1": 12, "latitude": -4.744083, "longitude": 105.206167 }, "geometry": { "type": "Point", "coordinates": [ 105.206167, -4.744083 ] } },
{ "type": "Feature", "properties": { "nama_unit_": " ", "perusahaan": "PT. Budi Starch & Sweetener Tbk.", "potensi__m": 2.429583, "kapasitas_": 200.0, "jenis_tekn": "Biogas", "jenis_limb": "Wastewater", "alamat_jal": " ", "alamat_des": "Desa Gedung Ketapang", "alamat_kec": " ", "alamat_kot": "Lampung Utara", "alamat_pro": "Lampung", "lat": null, "objectid_1": 13, "latitude": -4.7071, "longitude": 104.7793 }, "geometry": { "type": "Point", "coordinates": [ 104.7793, -4.7071 ] } },
{ "type": "Feature", "properties": { "nama_unit_": " ", "perusahaan": "PT. Budi Starch & Sweetener Tbk.", "potensi__m": 2.429583, "kapasitas_": 200.0, "jenis_tekn": "Biogas", "jenis_limb": "Wastewater", "alamat_jal": " ", "alamat_des": "Pakuon Agung Dusun 1", "alamat_kec": " ", "alamat_kot": "Lampung Utara", "alamat_pro": "Lampung", "lat": null, "objectid_1": 14, "latitude": -4.65925, "longitude": 105.978944 }, "geometry": { "type": "Point", "coordinates": [ 105.978944, -4.65925 ] } },
{ "type": "Feature", "properties": { "nama_unit_": " ", "perusahaan": "PT. Budi Starch & Sweetener Tbk.", "potensi__m": 2.429583, "kapasitas_": 200.0, "jenis_tekn": "Biogas", "jenis_limb": "Wastewater", "alamat_jal": " ", "alamat_des": "Desa Kibang", "alamat_kec": "Lambu Kibang", "alamat_kot": "Tulang Bawang", "alamat_pro": "Lampung", "lat": null, "objectid_1": 15, "latitude": -4.31975, "longitude": 105.122222 }, "geometry": { "type": "Point", "coordinates": [ 105.122222, -4.31975 ] } },
{ "type": "Feature", "properties": { "nama_unit_": " ", "perusahaan": "PT. Budi Starch & Sweetener Tbk.", "potensi__m": 1.214792, "kapasitas_": 100.0, "jenis_tekn": "Biogas", "jenis_limb": "Wastewater", "alamat_jal": " ", "alamat_des": "Desa Penumangan", "alamat_kec": " ", "alamat_kot": "Tulang Bawang Barat", "alamat_pro": "Lampung", "lat": null, "objectid_1": 16, "latitude": -4.480642, "longitude": 105.150871 }, "geometry": { "type": "Point", "coordinates": [ 105.150871, -4.480642 ] } },
{ "type": "Feature", "properties": { "nama_unit_": " ", "perusahaan": "BUDI LUMBUNG CIPTA TANI, PT", "potensi__m": 1.214792, "kapasitas_": 100.0, "jenis_tekn": "Biogas", "jenis_limb": "Wastewater", "alamat_jal": " Rt.24/13", "alamat_des": "Keron", "alamat_kec": " ", "alamat_kot": "Karanganyar", "alamat_pro": "Jawa Tengah", "lat": null, "objectid_1": 17, "latitude": -7.762222, "longitude": 111.005278 }, "geometry": { "type": "Point", "coordinates": [ 111.005278, -7.762222 ] } },
{ "type": "Feature", "properties": { "nama_unit_": " ", "perusahaan": "BUMI WARAS, CV", "potensi__m": 3.036979, "kapasitas_": 250.0, "jenis_tekn": "Biogas", "jenis_limb": "Wastewater", "alamat_jal": "Jl Yos Sudarso", "alamat_des": " ", "alamat_kec": " ", "alamat_kot": "Bandar Lampung", "alamat_pro": "Lampung", "lat": null, "objectid_1": 18, "latitude": -5.456684, "longitude": 105.313475 }, "geometry": { "type": "Point", "coordinates": [ 105.313475, -5.456684 ] } },
{ "type": "Feature", "properties": { "nama_unit_": " ", "perusahaan": "FLORINDO MAKMUR, PT", "potensi__m": 1.214792, "kapasitas_": 100.0, "jenis_tekn": "Biogas", "jenis_limb": "Wastewater", "alamat_jal": " ", "alamat_des": "Desa Tulung Buyut", "alamat_kec": "Hulu Sungai", "alamat_kot": "Lampung Utara", "alamat_pro": "Lampung", "lat": null, "objectid_1": 19, "latitude": -4.597076, "longitude": 104.718829 }, "geometry": { "type": "Point", "coordinates": [ 104.718829, -4.597076 ] } },
{ "type": "Feature", "properties": { "nama_unit_": " ", "perusahaan": "SARITANAM PRATAMA, PT", "potensi__m": 1.822188, "kapasitas_": 150.0, "jenis_tekn": "Biogas", "jenis_limb": "Wastewater", "alamat_jal": "Jl. Halim Perdana Kusuma Tajug Po Box 168", "alamat_des": " ", "alamat_kec": " ", "alamat_kot": " Ponorogo", "alamat_pro": "Jawa Timur", "lat": null, "objectid_1": 20, "latitude": -7.975081, "longitude": 111.521144 }, "geometry": { "type": "Point", "coordinates": [ 111.521144, -7.975081 ] } },
{ "type": "Feature", "properties": { "nama_unit_": " ", "perusahaan": "SORINI AGRO ASIA CORPORINDO TBK, PT", "potensi__m": 3.036979, "kapasitas_": 250.0, "jenis_tekn": "Biogas", "jenis_limb": "Wastewater", "alamat_jal": " ", "alamat_des": "Desa Kedaton", "alamat_kec": " ", "alamat_kot": "Lampung Timur", "alamat_pro": "Lampung", "lat": null, "objectid_1": 21, "latitude": -5.40268, "longitude": 105.290748 }, "geometry": { "type": "Point", "coordinates": [ 105.290748, -5.40268 ] } },
{ "type": "Feature", "properties": { "nama_unit_": "SB7", "perusahaan": "PT. Florindo Makmur", "potensi__m": 1.214792, "kapasitas_": 100.0, "jenis_tekn": "Biogas", "jenis_limb": "Wastewater", "alamat_jal": " ", "alamat_des": "Desa Kibang", "alamat_kec": "Lambu Kibang", "alamat_kot": "Tulang Bawang", "alamat_pro": "Lampung", "lat": null, "objectid_1": 22, "latitude": -4.31975, "longitude": 105.122222 }, "geometry": { "type": "Point", "coordinates": [ 105.122222, -4.31975 ] } },
{ "type": "Feature", "properties": { "nama_unit_": "Sukaraja", "perusahaan": "PT. Florindo Makmur", "potensi__m": 1.214792, "kapasitas_": 100.0, "jenis_tekn": "Biogas", "jenis_limb": "Wastewater", "alamat_jal": " ", "alamat_des": "Desa Nuban", "alamat_kec": "Batanghari Nuban", "alamat_kot": "Lampung Timur", "alamat_pro": "Lampung", "lat": null, "objectid_1": 23, "latitude": -5.035191, "longitude": 105.423307 }, "geometry": { "type": "Point", "coordinates": [ 105.423307, -5.035191 ] } },
{ "type": "Feature", "properties": { "nama_unit_": "Rumbia", "perusahaan": "PT. Florindo Makmur", "potensi__m": 1.214792, "kapasitas_": 100.0, "jenis_tekn": "Biogas", "jenis_limb": "Wastewater", "alamat_jal": " ", "alamat_des": "Desa Bumi Nabung timur", "alamat_kec": "Bumi Nabung", "alamat_kot": "Lampung Tengah", "alamat_pro": "Lampung", "lat": null, "objectid_1": 24, "latitude": -4.705973, "longitude": 105.570493 }, "geometry": { "type": "Point", "coordinates": [ 105.570493, -4.705973 ] } },
{ "type": "Feature", "properties": { "nama_unit_": "Tanjung Bintang", "perusahaan": "PT. Florindo Makmur", "potensi__m": 1.214792, "kapasitas_": 100.0, "jenis_tekn": "Biogas", "jenis_limb": "Wastewater", "alamat_jal": " ", "alamat_des": "Desa Neglasari", "alamat_kec": "Katibung", "alamat_kot": "Lampung Selatan", "alamat_pro": "Lampung", "lat": null, "objectid_1": 25, "latitude": -5.462608, "longitude": 105.477286 }, "geometry": { "type": "Point", "coordinates": [ 105.477286, -5.462608 ] } },
{ "type": "Feature", "properties": { "nama_unit_": " ", "perusahaan": "Wira Kencana Adiperdana Hutomo Budiono", "potensi__m": 3.036979, "kapasitas_": 250.0, "jenis_tekn": "Biogas", "jenis_limb": "Wastewater", "alamat_jal": " ", "alamat_des": "Ketapang", "alamat_kec": "Teluk Betung Selatan", "alamat_kot": "Bandar Lampung", "alamat_pro": "Lampung", "lat": null, "objectid_1": 26, "latitude": -5.428107, "longitude": 105.29508 }, "geometry": { "type": "Point", "coordinates": [ 105.29508, -5.428107 ] } },
{ "type": "Feature", "properties": { "nama_unit_": " ", "perusahaan": "PT. Budi Starch & Sweetener Tbk.", "potensi__m": 5.466562, "kapasitas_": 450.0, "jenis_tekn": "Biogas", "jenis_limb": "Wastewater", "alamat_jal": "Jalan Lintas Timur", "alamat_des": "Desa Agung Dalam", "alamat_kec": "Banjar Margo", "alamat_kot": "Tulang Bawang", "alamat_pro": "Lampung", "lat": null, "objectid_1": 27, "latitude": -4.227306, "longitude": 105.267444 }, "geometry": { "type": "Point", "coordinates": [ 105.267444, -4.227306 ] } },
{ "type": "Feature", "properties": { "nama_unit_": " ", "perusahaan": "PT Sinar Batu Rusa Prima", "potensi__m": 7.28875, "kapasitas_": 600.0, "jenis_tekn": "Biogas", "jenis_limb": "Wastewater", "alamat_jal": "Puding Besar", "alamat_des": " ", "alamat_kec": " ", "alamat_kot": "Bangka", "alamat_pro": "Bangka-Belitung", "lat": null, "objectid_1": 28, "latitude": -2.040287, "longitude": 105.931337 }, "geometry": { "type": "Point", "coordinates": [ 105.931337, -2.040287 ] } },
{ "type": "Feature", "properties": { "nama_unit_": " ", "perusahaan": "PT Tedco Agri Makmur", "potensi__m": 2.429583, "kapasitas_": 200.0, "jenis_tekn": "Biogas", "jenis_limb": "Wastewater", "alamat_jal": " ", "alamat_des": " ", "alamat_kec": " ", "alamat_kot": "Lampung Tengah", "alamat_pro": "Lampung", "lat": null, "objectid_1": 29, "latitude": -4.877174, "longitude": 105.130364 }, "geometry": { "type": "Point", "coordinates": [ 105.130364, -4.877174 ] } },
{ "type": "Feature", "properties": { "nama_unit_": " ", "perusahaan": "PT Bangka Asindo Agri", "potensi__m": 1.51849, "kapasitas_": 125.0, "jenis_tekn": "Biogas", "jenis_limb": "Wastewater", "alamat_jal": " ", "alamat_des": " ", "alamat_kec": " ", "alamat_kot": "Bangka Tengah", "alamat_pro": "Bangka-Belitung", "lat": null, "objectid_1": 30, "latitude": -1.93559, "longitude": 106.104864 }, "geometry": { "type": "Point", "coordinates": [ 106.104864, -1.93559 ] } },
{ "type": "Feature", "properties": { "nama_unit_": " ", "perusahaan": "PT Cipta Agung Manis", "potensi__m": 3.036979, "kapasitas_": 250.0, "jenis_tekn": "Biogas", "jenis_limb": "Wastewater", "alamat_jal": " ", "alamat_des": " ", "alamat_kec": " ", "alamat_kot": "Konawe Selatan", "alamat_pro": "Sulawesi Tenggara", "lat": null, "objectid_1": 31, "latitude": -4.335995, "longitude": 122.201561 }, "geometry": { "type": "Point", "coordinates": [ 122.201561, -4.335995 ] } },
{ "type": "Feature", "properties": { "nama_unit_": " ", "perusahaan": "PT. HUTAHEAN LAGUBOTI", "potensi__m": 2.429583, "kapasitas_": 200.0, "jenis_tekn": "Biogas", "jenis_limb": "Wastewater", "alamat_jal": " ", "alamat_des": " ", "alamat_kec": " ", "alamat_kot": "TOBA SAMOSIR", "alamat_pro": "SUMATERA UTARA", "lat": null, "objectid_1": 32, "latitude": 2.356787, "longitude": 99.183452 }, "geometry": { "type": "Point", "coordinates": [ 99.183452, 2.356787 ] } },
{ "type": "Feature", "properties": { "nama_unit_": " ", "perusahaan": "PT. SARI AGRO MANUNGGAL", "potensi__m": 1.214792, "kapasitas_": 100.0, "jenis_tekn": "Biogas", "jenis_limb": "Wastewater", "alamat_jal": " ", "alamat_des": " ", "alamat_kec": " ", "alamat_kot": "TULANG BAWANG", "alamat_pro": "LAMPUNG", "lat": null, "objectid_1": 33, "latitude": -4.3272, "longitude": 105.225611 }, "geometry": { "type": "Point", "coordinates": [ 105.225611, -4.3272 ] } }
]
}
